<?xml version="1.0" encoding="UTF-8"?>
<gpx xmlns="http://www.topografix.com/GPX/1/1" xmlns:gpxdata="http://www.cluetrust.com/XML/GPXDATA/1/0" xmlns:xsi="http://www.w3.org/2001/XMLSchema-instance" xsi:schemaLocation="http://www.topografix.com/GPX/1/1 https://www.topografix.com/GPX/1/1/gpx.xsd http://www.cluetrust.com/XML/GPXDATA/1/0 https://www.cluetrust.com/Schemas/gpxdata10.xsd" creator="COROS Wearables" version="1.1">
 <metadata>
  <link href="https://www.coros.com">
   <text>COROS</text>
  </link>
  <time>2026-09-21T03:08:24Z</time>
 </metadata>
 <trk>
  <name>HH26K_2027</name>
  <type>running</type>
  <trkseg>
   <trkpt lat="22.4047443" lon="114.1059799">
    <ele>477</ele>
   </trkpt>
   <trkpt lat="22.4046690" lon="114.1060813">
    <ele>478</ele>
   </trkpt>
   <trkpt lat="22.4046650" lon="114.1060866">
    <ele>478</ele>
   </trkpt>
   <trkpt lat="22.4046343" lon="114.1061487">
    <ele>478</ele>
   </trkpt>
   <trkpt lat="22.4046327" lon="114.1061520">
    <ele>478</ele>
   </trkpt>
   <trkpt lat="22.4045573" lon="114.1060578">
    <ele>476</ele>
   </trkpt>
   <trkpt lat="22.4045533" lon="114.1060528">
    <ele>476</ele>
   </trkpt>
   <trkpt lat="22.4044659" lon="114.1059756">
    <ele>477</ele>
   </trkpt>
   <trkpt lat="22.4044613" lon="114.1059715">
    <ele>477</ele>
   </trkpt>
   <trkpt lat="22.4043909" lon="114.1060476">
    <ele>477</ele>
   </trkpt>
   <trkpt lat="22.4043872" lon="114.1060516">
    <ele>477</ele>
   </trkpt>
   <trkpt lat="22.4044034" lon="114.1061850">
    <ele>478</ele>
   </trkpt>
   <trkpt lat="22.4044043" lon="114.1061920">
    <ele>478</ele>
   </trkpt>
   <trkpt lat="22.4043806" lon="114.1063093">
    <ele>480</ele>
   </trkpt>
   <trkpt lat="22.4043793" lon="114.1063155">
    <ele>480</ele>
   </trkpt>
   <trkpt lat="22.4042565" lon="114.1063483">
    <ele>478</ele>
   </trkpt>
   <trkpt lat="22.4042500" lon="114.1063500">
    <ele>466</ele>
   </trkpt>
   <trkpt lat="22.4040700" lon="114.1065600">
    <ele>461</ele>
   </trkpt>
   <trkpt lat="22.4040500" lon="114.1066400">
    <ele>461</ele>
   </trkpt>
   <trkpt lat="22.4040700" lon="114.1068000">
    <ele>459</ele>
   </trkpt>
   <trkpt lat="22.4040600" lon="114.1069000">
    <ele>458</ele>
   </trkpt>
   <trkpt lat="22.4040100" lon="114.1070400">
    <ele>457</ele>
   </trkpt>
   <trkpt lat="22.4038600" lon="114.1072100">
    <ele>458</ele>
   </trkpt>
   <trkpt lat="22.4038200" lon="114.1072400">
    <ele>458</ele>
   </trkpt>
   <trkpt lat="22.4037300" lon="114.1072400">
    <ele>458</ele>
   </trkpt>
   <trkpt lat="22.4034800" lon="114.1074300">
    <ele>456</ele>
   </trkpt>
   <trkpt lat="22.4033700" lon="114.1076000">
    <ele>455</ele>
   </trkpt>
   <trkpt lat="22.4033800" lon="114.1076700">
    <ele>455</ele>
   </trkpt>
   <trkpt lat="22.4032800" lon="114.1078400">
    <ele>454</ele>
   </trkpt>
   <trkpt lat="22.4032100" lon="114.1079100">
    <ele>454</ele>
   </trkpt>
   <trkpt lat="22.4029100" lon="114.1078500">
    <ele>455</ele>
   </trkpt>
   <trkpt lat="22.4028500" lon="114.1078900">
    <ele>455</ele>
   </trkpt>
   <trkpt lat="22.4027900" lon="114.1079600">
    <ele>456</ele>
   </trkpt>
   <trkpt lat="22.4027800" lon="114.1080600">
    <ele>458</ele>
   </trkpt>
   <trkpt lat="22.4027100" lon="114.1082200">
    <ele>459</ele>
   </trkpt>
   <trkpt lat="22.4026500" lon="114.1082900">
    <ele>458</ele>
   </trkpt>
   <trkpt lat="22.4025400" lon="114.1084000">
    <ele>454</ele>
   </trkpt>
   <trkpt lat="22.4024000" lon="114.1085000">
    <ele>454</ele>
   </trkpt>
   <trkpt lat="22.4023300" lon="114.1086300">
    <ele>451</ele>
   </trkpt>
   <trkpt lat="22.4022600" lon="114.1087000">
    <ele>450</ele>
   </trkpt>
   <trkpt lat="22.4021400" lon="114.1087500">
    <ele>448</ele>
   </trkpt>
   <trkpt lat="22.4019000" lon="114.1089900">
    <ele>438</ele>
   </trkpt>
   <trkpt lat="22.4015300" lon="114.1091200">
    <ele>423</ele>
   </trkpt>
   <trkpt lat="22.4013600" lon="114.1091300">
    <ele>417</ele>
   </trkpt>
   <trkpt lat="22.4012200" lon="114.1091900">
    <ele>410</ele>
   </trkpt>
   <trkpt lat="22.4011400" lon="114.1092000">
    <ele>409</ele>
   </trkpt>
   <trkpt lat="22.4009900" lon="114.1093100">
    <ele>405</ele>
   </trkpt>
   <trkpt lat="22.4009100" lon="114.1093500">
    <ele>404</ele>
   </trkpt>
   <trkpt lat="22.4006900" lon="114.1093200">
    <ele>401</ele>
   </trkpt>
   <trkpt lat="22.4004500" lon="114.1092000">
    <ele>394</ele>
   </trkpt>
   <trkpt lat="22.4003300" lon="114.1092200">
    <ele>392</ele>
   </trkpt>
   <trkpt lat="22.4002200" lon="114.1091900">
    <ele>391</ele>
   </trkpt>
   <trkpt lat="22.3999800" lon="114.1092600">
    <ele>390</ele>
   </trkpt>
   <trkpt lat="22.3997300" lon="114.1093700">
    <ele>390</ele>
   </trkpt>
   <trkpt lat="22.3994300" lon="114.1094100">
    <ele>386</ele>
   </trkpt>
   <trkpt lat="22.3992800" lon="114.1094100">
    <ele>384</ele>
   </trkpt>
   <trkpt lat="22.3990500" lon="114.1095700">
    <ele>381</ele>
   </trkpt>
   <trkpt lat="22.3988700" lon="114.1096600">
    <ele>374</ele>
   </trkpt>
   <trkpt lat="22.3986500" lon="114.1098100">
    <ele>363</ele>
   </trkpt>
   <trkpt lat="22.3985000" lon="114.1097500">
    <ele>355</ele>
   </trkpt>
   <trkpt lat="22.3982600" lon="114.1097700">
    <ele>348</ele>
   </trkpt>
   <trkpt lat="22.3982300" lon="114.1098000">
    <ele>348</ele>
   </trkpt>
   <trkpt lat="22.3981800" lon="114.1098800">
    <ele>344</ele>
   </trkpt>
   <trkpt lat="22.3980900" lon="114.1099500">
    <ele>341</ele>
   </trkpt>
   <trkpt lat="22.3977200" lon="114.1100200">
    <ele>335</ele>
   </trkpt>
   <trkpt lat="22.3975700" lon="114.1100000">
    <ele>333</ele>
   </trkpt>
   <trkpt lat="22.3974600" lon="114.1099500">
    <ele>332</ele>
   </trkpt>
   <trkpt lat="22.3971000" lon="114.1097000">
    <ele>328</ele>
   </trkpt>
   <trkpt lat="22.3969700" lon="114.1096500">
    <ele>328</ele>
   </trkpt>
   <trkpt lat="22.3967800" lon="114.1096100">
    <ele>323</ele>
   </trkpt>
   <trkpt lat="22.3963300" lon="114.1096100">
    <ele>321</ele>
   </trkpt>
   <trkpt lat="22.3961400" lon="114.1095800">
    <ele>321</ele>
   </trkpt>
   <trkpt lat="22.3959700" lon="114.1095100">
    <ele>318</ele>
   </trkpt>
   <trkpt lat="22.3957000" lon="114.1093300">
    <ele>315</ele>
   </trkpt>
   <trkpt lat="22.3955200" lon="114.1091500">
    <ele>314</ele>
   </trkpt>
   <trkpt lat="22.3954000" lon="114.1089300">
    <ele>312</ele>
   </trkpt>
   <trkpt lat="22.3953700" lon="114.1088100">
    <ele>311</ele>
   </trkpt>
   <trkpt lat="22.3953200" lon="114.1088300">
    <ele>308</ele>
   </trkpt>
   <trkpt lat="22.3952900" lon="114.1086800">
    <ele>308</ele>
   </trkpt>
   <trkpt lat="22.3951700" lon="114.1086700">
    <ele>308</ele>
   </trkpt>
   <trkpt lat="22.3950900" lon="114.1088800">
    <ele>308</ele>
   </trkpt>
   <trkpt lat="22.3950700" lon="114.1090300">
    <ele>308</ele>
   </trkpt>
   <trkpt lat="22.3951100" lon="114.1091200">
    <ele>308</ele>
   </trkpt>
   <trkpt lat="22.3953300" lon="114.1093200">
    <ele>307</ele>
   </trkpt>
   <trkpt lat="22.3954000" lon="114.1094200">
    <ele>307</ele>
   </trkpt>
   <trkpt lat="22.3954100" lon="114.1095400">
    <ele>307</ele>
   </trkpt>
   <trkpt lat="22.3953700" lon="114.1099000">
    <ele>308</ele>
   </trkpt>
   <trkpt lat="22.3953100" lon="114.1100900">
    <ele>308</ele>
   </trkpt>
   <trkpt lat="22.3952300" lon="114.1102600">
    <ele>308</ele>
   </trkpt>
   <trkpt lat="22.3951700" lon="114.1103300">
    <ele>309</ele>
   </trkpt>
   <trkpt lat="22.3950500" lon="114.1103900">
    <ele>309</ele>
   </trkpt>
   <trkpt lat="22.3949000" lon="114.1105300">
    <ele>309</ele>
   </trkpt>
   <trkpt lat="22.3946300" lon="114.1106300">
    <ele>310</ele>
   </trkpt>
   <trkpt lat="22.3944600" lon="114.1107500">
    <ele>310</ele>
   </trkpt>
   <trkpt lat="22.3942300" lon="114.1109700">
    <ele>311</ele>
   </trkpt>
   <trkpt lat="22.3941300" lon="114.1110300">
    <ele>311</ele>
   </trkpt>
   <trkpt lat="22.3939300" lon="114.1110900">
    <ele>311</ele>
   </trkpt>
   <trkpt lat="22.3932600" lon="114.1109900">
    <ele>313</ele>
   </trkpt>
   <trkpt lat="22.3930300" lon="114.1109200">
    <ele>313</ele>
   </trkpt>
   <trkpt lat="22.3924000" lon="114.1105200">
    <ele>317</ele>
   </trkpt>
   <trkpt lat="22.3922300" lon="114.1105000">
    <ele>320</ele>
   </trkpt>
   <trkpt lat="22.3920500" lon="114.1105300">
    <ele>322</ele>
   </trkpt>
   <trkpt lat="22.3917500" lon="114.1106800">
    <ele>323</ele>
   </trkpt>
   <trkpt lat="22.3916600" lon="114.1107900">
    <ele>323</ele>
   </trkpt>
   <trkpt lat="22.3913800" lon="114.1109300">
    <ele>323</ele>
   </trkpt>
   <trkpt lat="22.3912200" lon="114.1110900">
    <ele>323</ele>
   </trkpt>
   <trkpt lat="22.3910200" lon="114.1111800">
    <ele>322</ele>
   </trkpt>
   <trkpt lat="22.3908400" lon="114.1114000">
    <ele>322</ele>
   </trkpt>
   <trkpt lat="22.3907600" lon="114.1116100">
    <ele>322</ele>
   </trkpt>
   <trkpt lat="22.3907100" lon="114.1122800">
    <ele>323</ele>
   </trkpt>
   <trkpt lat="22.3904500" lon="114.1125500">
    <ele>324</ele>
   </trkpt>
   <trkpt lat="22.3904300" lon="114.1126200">
    <ele>326</ele>
   </trkpt>
   <trkpt lat="22.3904400" lon="114.1127300">
    <ele>326</ele>
   </trkpt>
   <trkpt lat="22.3905500" lon="114.1130300">
    <ele>329</ele>
   </trkpt>
   <trkpt lat="22.3907500" lon="114.1132600">
    <ele>334</ele>
   </trkpt>
   <trkpt lat="22.3907800" lon="114.1133700">
    <ele>334</ele>
   </trkpt>
   <trkpt lat="22.3907600" lon="114.1134900">
    <ele>336</ele>
   </trkpt>
   <trkpt lat="22.3905400" lon="114.1137400">
    <ele>339</ele>
   </trkpt>
   <trkpt lat="22.3903100" lon="114.1139200">
    <ele>342</ele>
   </trkpt>
   <trkpt lat="22.3902300" lon="114.1141000">
    <ele>343</ele>
   </trkpt>
   <trkpt lat="22.3900500" lon="114.1143400">
    <ele>346</ele>
   </trkpt>
   <trkpt lat="22.3900500" lon="114.1143900">
    <ele>348</ele>
   </trkpt>
   <trkpt lat="22.3902000" lon="114.1146700">
    <ele>350</ele>
   </trkpt>
   <trkpt lat="22.3901800" lon="114.1148000">
    <ele>350</ele>
   </trkpt>
   <trkpt lat="22.3901200" lon="114.1148400">
    <ele>350</ele>
   </trkpt>
   <trkpt lat="22.3900300" lon="114.1148700">
    <ele>350</ele>
   </trkpt>
   <trkpt lat="22.3899600" lon="114.1149300">
    <ele>349</ele>
   </trkpt>
   <trkpt lat="22.3898800" lon="114.1151400">
    <ele>349</ele>
   </trkpt>
   <trkpt lat="22.3896800" lon="114.1154300">
    <ele>352</ele>
   </trkpt>
   <trkpt lat="22.3896000" lon="114.1154500">
    <ele>353</ele>
   </trkpt>
   <trkpt lat="22.3893700" lon="114.1154500">
    <ele>354</ele>
   </trkpt>
   <trkpt lat="22.3892400" lon="114.1155100">
    <ele>355</ele>
   </trkpt>
   <trkpt lat="22.3892300" lon="114.1155200">
    <ele>355</ele>
   </trkpt>
   <trkpt lat="22.3892400" lon="114.1155000">
    <ele>355</ele>
   </trkpt>
   <trkpt lat="22.3892000" lon="114.1156200">
    <ele>355</ele>
   </trkpt>
   <trkpt lat="22.3893000" lon="114.1161800">
    <ele>361</ele>
   </trkpt>
   <trkpt lat="22.3895100" lon="114.1163700">
    <ele>363</ele>
   </trkpt>
   <trkpt lat="22.3896900" lon="114.1168300">
    <ele>368</ele>
   </trkpt>
   <trkpt lat="22.3897600" lon="114.1168900">
    <ele>370</ele>
   </trkpt>
   <trkpt lat="22.3904600" lon="114.1169400">
    <ele>375</ele>
   </trkpt>
   <trkpt lat="22.3905200" lon="114.1170000">
    <ele>375</ele>
   </trkpt>
   <trkpt lat="22.3905500" lon="114.1175900">
    <ele>376</ele>
   </trkpt>
   <trkpt lat="22.3905200" lon="114.1177300">
    <ele>376</ele>
   </trkpt>
   <trkpt lat="22.3904500" lon="114.1178000">
    <ele>376</ele>
   </trkpt>
   <trkpt lat="22.3904100" lon="114.1178900">
    <ele>377</ele>
   </trkpt>
   <trkpt lat="22.3904400" lon="114.1179800">
    <ele>377</ele>
   </trkpt>
   <trkpt lat="22.3901600" lon="114.1183400">
    <ele>368</ele>
   </trkpt>
   <trkpt lat="22.3903500" lon="114.1184600">
    <ele>364</ele>
   </trkpt>
   <trkpt lat="22.3905900" lon="114.1184900">
    <ele>361</ele>
   </trkpt>
   <trkpt lat="22.3909200" lon="114.1185900">
    <ele>358</ele>
   </trkpt>
   <trkpt lat="22.3912000" lon="114.1190800">
    <ele>352</ele>
   </trkpt>
   <trkpt lat="22.3913100" lon="114.1192300">
    <ele>346</ele>
   </trkpt>
   <trkpt lat="22.3916000" lon="114.1194000">
    <ele>339</ele>
   </trkpt>
   <trkpt lat="22.3916900" lon="114.1194800">
    <ele>339</ele>
   </trkpt>
   <trkpt lat="22.3917800" lon="114.1196000">
    <ele>337</ele>
   </trkpt>
   <trkpt lat="22.3918400" lon="114.1196900">
    <ele>335</ele>
   </trkpt>
   <trkpt lat="22.3919900" lon="114.1200400">
    <ele>332</ele>
   </trkpt>
   <trkpt lat="22.3922700" lon="114.1201100">
    <ele>332</ele>
   </trkpt>
   <trkpt lat="22.3924500" lon="114.1202400">
    <ele>334</ele>
   </trkpt>
   <trkpt lat="22.3924900" lon="114.1204100">
    <ele>336</ele>
   </trkpt>
   <trkpt lat="22.3924700" lon="114.1206700">
    <ele>338</ele>
   </trkpt>
   <trkpt lat="22.3925000" lon="114.1208900">
    <ele>340</ele>
   </trkpt>
   <trkpt lat="22.3925400" lon="114.1209200">
    <ele>340</ele>
   </trkpt>
   <trkpt lat="22.3926100" lon="114.1209200">
    <ele>340</ele>
   </trkpt>
   <trkpt lat="22.3928300" lon="114.1206800">
    <ele>342</ele>
   </trkpt>
   <trkpt lat="22.3929800" lon="114.1206900">
    <ele>340</ele>
   </trkpt>
   <trkpt lat="22.3931100" lon="114.1206700">
    <ele>338</ele>
   </trkpt>
   <trkpt lat="22.3931500" lon="114.1206800">
    <ele>337</ele>
   </trkpt>
   <trkpt lat="22.3931900" lon="114.1207300">
    <ele>336</ele>
   </trkpt>
   <trkpt lat="22.3931500" lon="114.1209600">
    <ele>329</ele>
   </trkpt>
   <trkpt lat="22.3931900" lon="114.1210600">
    <ele>327</ele>
   </trkpt>
   <trkpt lat="22.3932400" lon="114.1211300">
    <ele>326</ele>
   </trkpt>
   <trkpt lat="22.3936900" lon="114.1214200">
    <ele>321</ele>
   </trkpt>
   <trkpt lat="22.3937500" lon="114.1214400">
    <ele>321</ele>
   </trkpt>
   <trkpt lat="22.3938800" lon="114.1214000">
    <ele>321</ele>
   </trkpt>
   <trkpt lat="22.3939800" lon="114.1214500">
    <ele>320</ele>
   </trkpt>
   <trkpt lat="22.3940100" lon="114.1215800">
    <ele>319</ele>
   </trkpt>
   <trkpt lat="22.3939100" lon="114.1217600">
    <ele>319</ele>
   </trkpt>
   <trkpt lat="22.3937500" lon="114.1221600">
    <ele>323</ele>
   </trkpt>
   <trkpt lat="22.3937200" lon="114.1223200">
    <ele>325</ele>
   </trkpt>
   <trkpt lat="22.3937900" lon="114.1224100">
    <ele>325</ele>
   </trkpt>
   <trkpt lat="22.3941600" lon="114.1225400">
    <ele>327</ele>
   </trkpt>
   <trkpt lat="22.3947900" lon="114.1227100">
    <ele>334</ele>
   </trkpt>
   <trkpt lat="22.3949800" lon="114.1229000">
    <ele>336</ele>
   </trkpt>
   <trkpt lat="22.3949900" lon="114.1229400">
    <ele>336</ele>
   </trkpt>
   <trkpt lat="22.3949800" lon="114.1229700">
    <ele>336</ele>
   </trkpt>
   <trkpt lat="22.3948100" lon="114.1230500">
    <ele>333</ele>
   </trkpt>
   <trkpt lat="22.3947800" lon="114.1230900">
    <ele>333</ele>
   </trkpt>
   <trkpt lat="22.3948100" lon="114.1232800">
    <ele>333</ele>
   </trkpt>
   <trkpt lat="22.3947700" lon="114.1234400">
    <ele>332</ele>
   </trkpt>
   <trkpt lat="22.3947100" lon="114.1235200">
    <ele>332</ele>
   </trkpt>
   <trkpt lat="22.3946800" lon="114.1236100">
    <ele>331</ele>
   </trkpt>
   <trkpt lat="22.3939800" lon="114.1238800">
    <ele>334</ele>
   </trkpt>
   <trkpt lat="22.3937300" lon="114.1238900">
    <ele>334</ele>
   </trkpt>
   <trkpt lat="22.3935900" lon="114.1240100">
    <ele>334</ele>
   </trkpt>
   <trkpt lat="22.3935800" lon="114.1240700">
    <ele>333</ele>
   </trkpt>
   <trkpt lat="22.3936700" lon="114.1243600">
    <ele>328</ele>
   </trkpt>
   <trkpt lat="22.3935600" lon="114.1245700">
    <ele>323</ele>
   </trkpt>
   <trkpt lat="22.3935200" lon="114.1246100">
    <ele>323</ele>
   </trkpt>
   <trkpt lat="22.3934700" lon="114.1246400">
    <ele>322</ele>
   </trkpt>
   <trkpt lat="22.3932600" lon="114.1244700">
    <ele>322</ele>
   </trkpt>
   <trkpt lat="22.3931700" lon="114.1243300">
    <ele>321</ele>
   </trkpt>
   <trkpt lat="22.3930600" lon="114.1243300">
    <ele>321</ele>
   </trkpt>
   <trkpt lat="22.3925100" lon="114.1246100">
    <ele>319</ele>
   </trkpt>
   <trkpt lat="22.3921100" lon="114.1249000">
    <ele>318</ele>
   </trkpt>
   <trkpt lat="22.3920500" lon="114.1249800">
    <ele>318</ele>
   </trkpt>
   <trkpt lat="22.3919200" lon="114.1251200">
    <ele>320</ele>
   </trkpt>
   <trkpt lat="22.3916500" lon="114.1252900">
    <ele>321</ele>
   </trkpt>
   <trkpt lat="22.3914200" lon="114.1253800">
    <ele>321</ele>
   </trkpt>
   <trkpt lat="22.3913200" lon="114.1256200">
    <ele>320</ele>
   </trkpt>
   <trkpt lat="22.3911700" lon="114.1257900">
    <ele>319</ele>
   </trkpt>
   <trkpt lat="22.3911300" lon="114.1261600">
    <ele>319</ele>
   </trkpt>
   <trkpt lat="22.3911900" lon="114.1264200">
    <ele>321</ele>
   </trkpt>
   <trkpt lat="22.3911000" lon="114.1266800">
    <ele>324</ele>
   </trkpt>
   <trkpt lat="22.3911300" lon="114.1268200">
    <ele>325</ele>
   </trkpt>
   <trkpt lat="22.3911100" lon="114.1269100">
    <ele>325</ele>
   </trkpt>
   <trkpt lat="22.3910200" lon="114.1270200">
    <ele>325</ele>
   </trkpt>
   <trkpt lat="22.3909100" lon="114.1270200">
    <ele>325</ele>
   </trkpt>
   <trkpt lat="22.3906700" lon="114.1268000">
    <ele>325</ele>
   </trkpt>
   <trkpt lat="22.3903300" lon="114.1268100">
    <ele>328</ele>
   </trkpt>
   <trkpt lat="22.3901900" lon="114.1267800">
    <ele>329</ele>
   </trkpt>
   <trkpt lat="22.3900600" lon="114.1266800">
    <ele>331</ele>
   </trkpt>
   <trkpt lat="22.3898500" lon="114.1266500">
    <ele>331</ele>
   </trkpt>
   <trkpt lat="22.3897700" lon="114.1267200">
    <ele>330</ele>
   </trkpt>
   <trkpt lat="22.3897100" lon="114.1268300">
    <ele>329</ele>
   </trkpt>
   <trkpt lat="22.3897300" lon="114.1269800">
    <ele>330</ele>
   </trkpt>
   <trkpt lat="22.3896600" lon="114.1271100">
    <ele>330</ele>
   </trkpt>
   <trkpt lat="22.3892600" lon="114.1276500">
    <ele>332</ele>
   </trkpt>
   <trkpt lat="22.3891300" lon="114.1278700">
    <ele>332</ele>
   </trkpt>
   <trkpt lat="22.3890700" lon="114.1280100">
    <ele>332</ele>
   </trkpt>
   <trkpt lat="22.3890700" lon="114.1282000">
    <ele>331</ele>
   </trkpt>
   <trkpt lat="22.3891000" lon="114.1282900">
    <ele>330</ele>
   </trkpt>
   <trkpt lat="22.3890800" lon="114.1283800">
    <ele>330</ele>
   </trkpt>
   <trkpt lat="22.3889500" lon="114.1284200">
    <ele>330</ele>
   </trkpt>
   <trkpt lat="22.3886200" lon="114.1283800">
    <ele>331</ele>
   </trkpt>
   <trkpt lat="22.3885600" lon="114.1284700">
    <ele>331</ele>
   </trkpt>
   <trkpt lat="22.3886000" lon="114.1287100">
    <ele>333</ele>
   </trkpt>
   <trkpt lat="22.3885100" lon="114.1288400">
    <ele>334</ele>
   </trkpt>
   <trkpt lat="22.3884600" lon="114.1289700">
    <ele>336</ele>
   </trkpt>
   <trkpt lat="22.3884400" lon="114.1290900">
    <ele>337</ele>
   </trkpt>
   <trkpt lat="22.3884500" lon="114.1292500">
    <ele>338</ele>
   </trkpt>
   <trkpt lat="22.3885100" lon="114.1295500">
    <ele>342</ele>
   </trkpt>
   <trkpt lat="22.3885100" lon="114.1297500">
    <ele>347</ele>
   </trkpt>
   <trkpt lat="22.3885500" lon="114.1298600">
    <ele>348</ele>
   </trkpt>
   <trkpt lat="22.3885600" lon="114.1299500">
    <ele>350</ele>
   </trkpt>
   <trkpt lat="22.3885300" lon="114.1299800">
    <ele>351</ele>
   </trkpt>
   <trkpt lat="22.3882400" lon="114.1299800">
    <ele>356</ele>
   </trkpt>
   <trkpt lat="22.3880900" lon="114.1300300">
    <ele>357</ele>
   </trkpt>
   <trkpt lat="22.3879300" lon="114.1301300">
    <ele>359</ele>
   </trkpt>
   <trkpt lat="22.3877600" lon="114.1301800">
    <ele>360</ele>
   </trkpt>
   <trkpt lat="22.3877400" lon="114.1301800">
    <ele>360</ele>
   </trkpt>
   <trkpt lat="22.3877600" lon="114.1301800">
    <ele>360</ele>
   </trkpt>
   <trkpt lat="22.3877600" lon="114.1302200">
    <ele>361</ele>
   </trkpt>
   <trkpt lat="22.3878500" lon="114.1304700">
    <ele>361</ele>
   </trkpt>
   <trkpt lat="22.3877900" lon="114.1306100">
    <ele>362</ele>
   </trkpt>
   <trkpt lat="22.3878000" lon="114.1306500">
    <ele>362</ele>
   </trkpt>
   <trkpt lat="22.3879000" lon="114.1307400">
    <ele>362</ele>
   </trkpt>
   <trkpt lat="22.3879000" lon="114.1307600">
    <ele>362</ele>
   </trkpt>
   <trkpt lat="22.3876800" lon="114.1309400">
    <ele>360</ele>
   </trkpt>
   <trkpt lat="22.3876500" lon="114.1310300">
    <ele>360</ele>
   </trkpt>
   <trkpt lat="22.3876700" lon="114.1310800">
    <ele>360</ele>
   </trkpt>
   <trkpt lat="22.3877400" lon="114.1311300">
    <ele>360</ele>
   </trkpt>
   <trkpt lat="22.3879600" lon="114.1311700">
    <ele>358</ele>
   </trkpt>
   <trkpt lat="22.3880100" lon="114.1312000">
    <ele>358</ele>
   </trkpt>
   <trkpt lat="22.3880300" lon="114.1312400">
    <ele>358</ele>
   </trkpt>
   <trkpt lat="22.3878300" lon="114.1315400">
    <ele>358</ele>
   </trkpt>
   <trkpt lat="22.3877500" lon="114.1317200">
    <ele>358</ele>
   </trkpt>
   <trkpt lat="22.3877800" lon="114.1317600">
    <ele>358</ele>
   </trkpt>
   <trkpt lat="22.3879300" lon="114.1318300">
    <ele>357</ele>
   </trkpt>
   <trkpt lat="22.3881100" lon="114.1320900">
    <ele>357</ele>
   </trkpt>
   <trkpt lat="22.3883000" lon="114.1321000">
    <ele>356</ele>
   </trkpt>
   <trkpt lat="22.3884100" lon="114.1321600">
    <ele>356</ele>
   </trkpt>
   <trkpt lat="22.3885000" lon="114.1321200">
    <ele>357</ele>
   </trkpt>
   <trkpt lat="22.3885400" lon="114.1320600">
    <ele>358</ele>
   </trkpt>
   <trkpt lat="22.3886100" lon="114.1320400">
    <ele>358</ele>
   </trkpt>
   <trkpt lat="22.3886500" lon="114.1320000">
    <ele>358</ele>
   </trkpt>
   <trkpt lat="22.3887200" lon="114.1320100">
    <ele>359</ele>
   </trkpt>
   <trkpt lat="22.3887400" lon="114.1320500">
    <ele>359</ele>
   </trkpt>
   <trkpt lat="22.3887000" lon="114.1321900">
    <ele>359</ele>
   </trkpt>
   <trkpt lat="22.3887200" lon="114.1322700">
    <ele>359</ele>
   </trkpt>
   <trkpt lat="22.3887500" lon="114.1323000">
    <ele>359</ele>
   </trkpt>
   <trkpt lat="22.3888800" lon="114.1323500">
    <ele>359</ele>
   </trkpt>
   <trkpt lat="22.3890100" lon="114.1324700">
    <ele>358</ele>
   </trkpt>
   <trkpt lat="22.3891000" lon="114.1326100">
    <ele>358</ele>
   </trkpt>
   <trkpt lat="22.3890500" lon="114.1328000">
    <ele>357</ele>
   </trkpt>
   <trkpt lat="22.3890500" lon="114.1328700">
    <ele>357</ele>
   </trkpt>
   <trkpt lat="22.3890800" lon="114.1329500">
    <ele>356</ele>
   </trkpt>
   <trkpt lat="22.3891400" lon="114.1330100">
    <ele>355</ele>
   </trkpt>
   <trkpt lat="22.3893600" lon="114.1331400">
    <ele>354</ele>
   </trkpt>
   <trkpt lat="22.3892900" lon="114.1332400">
    <ele>353</ele>
   </trkpt>
   <trkpt lat="22.3890900" lon="114.1334000">
    <ele>350</ele>
   </trkpt>
   <trkpt lat="22.3890300" lon="114.1334800">
    <ele>350</ele>
   </trkpt>
   <trkpt lat="22.3890000" lon="114.1337000">
    <ele>348</ele>
   </trkpt>
   <trkpt lat="22.3889200" lon="114.1338300">
    <ele>347</ele>
   </trkpt>
   <trkpt lat="22.3889400" lon="114.1339700">
    <ele>348</ele>
   </trkpt>
   <trkpt lat="22.3891300" lon="114.1341500">
    <ele>350</ele>
   </trkpt>
   <trkpt lat="22.3891400" lon="114.1341900">
    <ele>350</ele>
   </trkpt>
   <trkpt lat="22.3890900" lon="114.1342200">
    <ele>350</ele>
   </trkpt>
   <trkpt lat="22.3889800" lon="114.1342400">
    <ele>350</ele>
   </trkpt>
   <trkpt lat="22.3889400" lon="114.1343700">
    <ele>351</ele>
   </trkpt>
   <trkpt lat="22.3891100" lon="114.1343100">
    <ele>352</ele>
   </trkpt>
   <trkpt lat="22.3892300" lon="114.1343300">
    <ele>356</ele>
   </trkpt>
   <trkpt lat="22.3894800" lon="114.1343000">
    <ele>359</ele>
   </trkpt>
   <trkpt lat="22.3895700" lon="114.1342300">
    <ele>361</ele>
   </trkpt>
   <trkpt lat="22.3897000" lon="114.1342500">
    <ele>366</ele>
   </trkpt>
   <trkpt lat="22.3899400" lon="114.1343800">
    <ele>369</ele>
   </trkpt>
   <trkpt lat="22.3900900" lon="114.1346800">
    <ele>371</ele>
   </trkpt>
   <trkpt lat="22.3902100" lon="114.1348500">
    <ele>369</ele>
   </trkpt>
   <trkpt lat="22.3903300" lon="114.1349600">
    <ele>369</ele>
   </trkpt>
   <trkpt lat="22.3903900" lon="114.1349500">
    <ele>369</ele>
   </trkpt>
   <trkpt lat="22.3904700" lon="114.1348700">
    <ele>370</ele>
   </trkpt>
   <trkpt lat="22.3905400" lon="114.1348400">
    <ele>371</ele>
   </trkpt>
   <trkpt lat="22.3906000" lon="114.1348700">
    <ele>373</ele>
   </trkpt>
   <trkpt lat="22.3906400" lon="114.1349800">
    <ele>374</ele>
   </trkpt>
   <trkpt lat="22.3907200" lon="114.1357200">
    <ele>377</ele>
   </trkpt>
   <trkpt lat="22.3907700" lon="114.1359200">
    <ele>376</ele>
   </trkpt>
   <trkpt lat="22.3908500" lon="114.1359600">
    <ele>374</ele>
   </trkpt>
   <trkpt lat="22.3909700" lon="114.1359600">
    <ele>372</ele>
   </trkpt>
   <trkpt lat="22.3912900" lon="114.1360200">
    <ele>368</ele>
   </trkpt>
   <trkpt lat="22.3913500" lon="114.1360700">
    <ele>367</ele>
   </trkpt>
   <trkpt lat="22.3914200" lon="114.1361800">
    <ele>367</ele>
   </trkpt>
   <trkpt lat="22.3915000" lon="114.1361700">
    <ele>368</ele>
   </trkpt>
   <trkpt lat="22.3915200" lon="114.1361900">
    <ele>368</ele>
   </trkpt>
   <trkpt lat="22.3914700" lon="114.1362500">
    <ele>372</ele>
   </trkpt>
   <trkpt lat="22.3914600" lon="114.1363100">
    <ele>372</ele>
   </trkpt>
   <trkpt lat="22.3914700" lon="114.1364200">
    <ele>373</ele>
   </trkpt>
   <trkpt lat="22.3915800" lon="114.1365300">
    <ele>374</ele>
   </trkpt>
   <trkpt lat="22.3917100" lon="114.1366000">
    <ele>374</ele>
   </trkpt>
   <trkpt lat="22.3918500" lon="114.1366000">
    <ele>375</ele>
   </trkpt>
   <trkpt lat="22.3920900" lon="114.1364600">
    <ele>374</ele>
   </trkpt>
   <trkpt lat="22.3921500" lon="114.1364900">
    <ele>374</ele>
   </trkpt>
   <trkpt lat="22.3921600" lon="114.1364900">
    <ele>374</ele>
   </trkpt>
   <trkpt lat="22.3921800" lon="114.1365400">
    <ele>374</ele>
   </trkpt>
   <trkpt lat="22.3921500" lon="114.1366900">
    <ele>375</ele>
   </trkpt>
   <trkpt lat="22.3921500" lon="114.1368500">
    <ele>376</ele>
   </trkpt>
   <trkpt lat="22.3920600" lon="114.1370300">
    <ele>381</ele>
   </trkpt>
   <trkpt lat="22.3920700" lon="114.1370800">
    <ele>383</ele>
   </trkpt>
   <trkpt lat="22.3922300" lon="114.1371500">
    <ele>385</ele>
   </trkpt>
   <trkpt lat="22.3923200" lon="114.1372300">
    <ele>386</ele>
   </trkpt>
   <trkpt lat="22.3924500" lon="114.1373100">
    <ele>387</ele>
   </trkpt>
   <trkpt lat="22.3924600" lon="114.1373400">
    <ele>387</ele>
   </trkpt>
   <trkpt lat="22.3922700" lon="114.1375600">
    <ele>387</ele>
   </trkpt>
   <trkpt lat="22.3922600" lon="114.1377400">
    <ele>387</ele>
   </trkpt>
   <trkpt lat="22.3922000" lon="114.1378200">
    <ele>388</ele>
   </trkpt>
   <trkpt lat="22.3921700" lon="114.1380000">
    <ele>391</ele>
   </trkpt>
   <trkpt lat="22.3922200" lon="114.1381000">
    <ele>391</ele>
   </trkpt>
   <trkpt lat="22.3922300" lon="114.1382400">
    <ele>393</ele>
   </trkpt>
   <trkpt lat="22.3921800" lon="114.1383700">
    <ele>397</ele>
   </trkpt>
   <trkpt lat="22.3919800" lon="114.1385900">
    <ele>401</ele>
   </trkpt>
   <trkpt lat="22.3919200" lon="114.1386200">
    <ele>401</ele>
   </trkpt>
   <trkpt lat="22.3918100" lon="114.1386200">
    <ele>403</ele>
   </trkpt>
   <trkpt lat="22.3917100" lon="114.1387700">
    <ele>408</ele>
   </trkpt>
   <trkpt lat="22.3916900" lon="114.1388500">
    <ele>408</ele>
   </trkpt>
   <trkpt lat="22.3917000" lon="114.1389300">
    <ele>410</ele>
   </trkpt>
   <trkpt lat="22.3917900" lon="114.1392500">
    <ele>403</ele>
   </trkpt>
   <trkpt lat="22.3917600" lon="114.1393600">
    <ele>402</ele>
   </trkpt>
   <trkpt lat="22.3914500" lon="114.1398000">
    <ele>399</ele>
   </trkpt>
   <trkpt lat="22.3914100" lon="114.1400100">
    <ele>398</ele>
   </trkpt>
   <trkpt lat="22.3913600" lon="114.1401300">
    <ele>398</ele>
   </trkpt>
   <trkpt lat="22.3911300" lon="114.1401500">
    <ele>395</ele>
   </trkpt>
   <trkpt lat="22.3909300" lon="114.1401300">
    <ele>392</ele>
   </trkpt>
   <trkpt lat="22.3906200" lon="114.1402700">
    <ele>385</ele>
   </trkpt>
   <trkpt lat="22.3897400" lon="114.1404200">
    <ele>375</ele>
   </trkpt>
   <trkpt lat="22.3895300" lon="114.1404000">
    <ele>374</ele>
   </trkpt>
   <trkpt lat="22.3887100" lon="114.1407500">
    <ele>360</ele>
   </trkpt>
   <trkpt lat="22.3886600" lon="114.1408200">
    <ele>359</ele>
   </trkpt>
   <trkpt lat="22.3886000" lon="114.1412200">
    <ele>353</ele>
   </trkpt>
   <trkpt lat="22.3885100" lon="114.1414000">
    <ele>351</ele>
   </trkpt>
   <trkpt lat="22.3880700" lon="114.1415500">
    <ele>342</ele>
   </trkpt>
   <trkpt lat="22.3877000" lon="114.1417700">
    <ele>338</ele>
   </trkpt>
   <trkpt lat="22.3876000" lon="114.1421300">
    <ele>333</ele>
   </trkpt>
   <trkpt lat="22.3876000" lon="114.1422900">
    <ele>325</ele>
   </trkpt>
   <trkpt lat="22.3875600" lon="114.1426300">
    <ele>319</ele>
   </trkpt>
   <trkpt lat="22.3875100" lon="114.1427700">
    <ele>312</ele>
   </trkpt>
   <trkpt lat="22.3874400" lon="114.1428600">
    <ele>310</ele>
   </trkpt>
   <trkpt lat="22.3875100" lon="114.1429400">
    <ele>305</ele>
   </trkpt>
   <trkpt lat="22.3875600" lon="114.1430400">
    <ele>301</ele>
   </trkpt>
   <trkpt lat="22.3875500" lon="114.1432700">
    <ele>289</ele>
   </trkpt>
   <trkpt lat="22.3875700" lon="114.1433800">
    <ele>287</ele>
   </trkpt>
   <trkpt lat="22.3874900" lon="114.1435400">
    <ele>280</ele>
   </trkpt>
   <trkpt lat="22.3875000" lon="114.1436100">
    <ele>278</ele>
   </trkpt>
   <trkpt lat="22.3873900" lon="114.1437300">
    <ele>268</ele>
   </trkpt>
   <trkpt lat="22.3871600" lon="114.1437600">
    <ele>257</ele>
   </trkpt>
   <trkpt lat="22.3870700" lon="114.1438300">
    <ele>257</ele>
   </trkpt>
   <trkpt lat="22.3869400" lon="114.1438600">
    <ele>250</ele>
   </trkpt>
   <trkpt lat="22.3868200" lon="114.1439900">
    <ele>245</ele>
   </trkpt>
   <trkpt lat="22.3868100" lon="114.1440900">
    <ele>242</ele>
   </trkpt>
   <trkpt lat="22.3867300" lon="114.1442200">
    <ele>239</ele>
   </trkpt>
   <trkpt lat="22.3866800" lon="114.1443700">
    <ele>233</ele>
   </trkpt>
   <trkpt lat="22.3866900" lon="114.1444100">
    <ele>233</ele>
   </trkpt>
   <trkpt lat="22.3867300" lon="114.1444500">
    <ele>229</ele>
   </trkpt>
   <trkpt lat="22.3867200" lon="114.1444700">
    <ele>229</ele>
   </trkpt>
   <trkpt lat="22.3866900" lon="114.1445000">
    <ele>229</ele>
   </trkpt>
   <trkpt lat="22.3864700" lon="114.1443400">
    <ele>228</ele>
   </trkpt>
   <trkpt lat="22.3864300" lon="114.1442900">
    <ele>228</ele>
   </trkpt>
   <trkpt lat="22.3863900" lon="114.1441700">
    <ele>228</ele>
   </trkpt>
   <trkpt lat="22.3863600" lon="114.1439500">
    <ele>227</ele>
   </trkpt>
   <trkpt lat="22.3862700" lon="114.1437600">
    <ele>227</ele>
   </trkpt>
   <trkpt lat="22.3861900" lon="114.1437000">
    <ele>227</ele>
   </trkpt>
   <trkpt lat="22.3859700" lon="114.1436600">
    <ele>227</ele>
   </trkpt>
   <trkpt lat="22.3859200" lon="114.1436200">
    <ele>227</ele>
   </trkpt>
   <trkpt lat="22.3858300" lon="114.1434300">
    <ele>226</ele>
   </trkpt>
   <trkpt lat="22.3858200" lon="114.1433200">
    <ele>225</ele>
   </trkpt>
   <trkpt lat="22.3857900" lon="114.1432600">
    <ele>225</ele>
   </trkpt>
   <trkpt lat="22.3854500" lon="114.1429200">
    <ele>222</ele>
   </trkpt>
   <trkpt lat="22.3853800" lon="114.1428200">
    <ele>222</ele>
   </trkpt>
   <trkpt lat="22.3853400" lon="114.1426600">
    <ele>222</ele>
   </trkpt>
   <trkpt lat="22.3853800" lon="114.1424000">
    <ele>220</ele>
   </trkpt>
   <trkpt lat="22.3853700" lon="114.1423100">
    <ele>220</ele>
   </trkpt>
   <trkpt lat="22.3852900" lon="114.1421100">
    <ele>217</ele>
   </trkpt>
   <trkpt lat="22.3852800" lon="114.1420100">
    <ele>217</ele>
   </trkpt>
   <trkpt lat="22.3852800" lon="114.1419100">
    <ele>215</ele>
   </trkpt>
   <trkpt lat="22.3853300" lon="114.1417400">
    <ele>214</ele>
   </trkpt>
   <trkpt lat="22.3853100" lon="114.1416300">
    <ele>213</ele>
   </trkpt>
   <trkpt lat="22.3851700" lon="114.1413900">
    <ele>210</ele>
   </trkpt>
   <trkpt lat="22.3851300" lon="114.1412100">
    <ele>208</ele>
   </trkpt>
   <trkpt lat="22.3849500" lon="114.1410100">
    <ele>204</ele>
   </trkpt>
   <trkpt lat="22.3849100" lon="114.1410600">
    <ele>204</ele>
   </trkpt>
   <trkpt lat="22.3848600" lon="114.1412300">
    <ele>203</ele>
   </trkpt>
   <trkpt lat="22.3848800" lon="114.1414800">
    <ele>201</ele>
   </trkpt>
   <trkpt lat="22.3849300" lon="114.1417000">
    <ele>199</ele>
   </trkpt>
   <trkpt lat="22.3849200" lon="114.1417900">
    <ele>198</ele>
   </trkpt>
   <trkpt lat="22.3848800" lon="114.1418600">
    <ele>197</ele>
   </trkpt>
   <trkpt lat="22.3847600" lon="114.1419800">
    <ele>194</ele>
   </trkpt>
   <trkpt lat="22.3844400" lon="114.1420600">
    <ele>190</ele>
   </trkpt>
   <trkpt lat="22.3843600" lon="114.1421300">
    <ele>189</ele>
   </trkpt>
   <trkpt lat="22.3843000" lon="114.1423100">
    <ele>188</ele>
   </trkpt>
   <trkpt lat="22.3843400" lon="114.1424700">
    <ele>185</ele>
   </trkpt>
   <trkpt lat="22.3844000" lon="114.1425400">
    <ele>185</ele>
   </trkpt>
   <trkpt lat="22.3844600" lon="114.1426600">
    <ele>184</ele>
   </trkpt>
   <trkpt lat="22.3844600" lon="114.1430100">
    <ele>181</ele>
   </trkpt>
   <trkpt lat="22.3845400" lon="114.1432500">
    <ele>179</ele>
   </trkpt>
   <trkpt lat="22.3846100" lon="114.1436300">
    <ele>175</ele>
   </trkpt>
   <trkpt lat="22.3846000" lon="114.1436900">
    <ele>175</ele>
   </trkpt>
   <trkpt lat="22.3845200" lon="114.1436900">
    <ele>174</ele>
   </trkpt>
   <trkpt lat="22.3844500" lon="114.1437800">
    <ele>174</ele>
   </trkpt>
   <trkpt lat="22.3843400" lon="114.1437900">
    <ele>174</ele>
   </trkpt>
   <trkpt lat="22.3841400" lon="114.1437500">
    <ele>175</ele>
   </trkpt>
   <trkpt lat="22.3839500" lon="114.1436100">
    <ele>176</ele>
   </trkpt>
   <trkpt lat="22.3834900" lon="114.1431500">
    <ele>178</ele>
   </trkpt>
   <trkpt lat="22.3834600" lon="114.1430800">
    <ele>178</ele>
   </trkpt>
   <trkpt lat="22.3834300" lon="114.1427600">
    <ele>179</ele>
   </trkpt>
   <trkpt lat="22.3834000" lon="114.1426700">
    <ele>179</ele>
   </trkpt>
   <trkpt lat="22.3833300" lon="114.1426000">
    <ele>180</ele>
   </trkpt>
   <trkpt lat="22.3832400" lon="114.1425400">
    <ele>180</ele>
   </trkpt>
   <trkpt lat="22.3830200" lon="114.1425300">
    <ele>180</ele>
   </trkpt>
   <trkpt lat="22.3828300" lon="114.1424700">
    <ele>182</ele>
   </trkpt>
   <trkpt lat="22.3824500" lon="114.1419000">
    <ele>183</ele>
   </trkpt>
   <trkpt lat="22.3820700" lon="114.1416400">
    <ele>184</ele>
   </trkpt>
   <trkpt lat="22.3817100" lon="114.1413600">
    <ele>185</ele>
   </trkpt>
   <trkpt lat="22.3816000" lon="114.1413100">
    <ele>186</ele>
   </trkpt>
   <trkpt lat="22.3815500" lon="114.1413100">
    <ele>186</ele>
   </trkpt>
   <trkpt lat="22.3812000" lon="114.1414800">
    <ele>187</ele>
   </trkpt>
   <trkpt lat="22.3809200" lon="114.1415200">
    <ele>188</ele>
   </trkpt>
   <trkpt lat="22.3808300" lon="114.1416800">
    <ele>189</ele>
   </trkpt>
   <trkpt lat="22.3808200" lon="114.1417900">
    <ele>189</ele>
   </trkpt>
   <trkpt lat="22.3808400" lon="114.1419200">
    <ele>189</ele>
   </trkpt>
   <trkpt lat="22.3811400" lon="114.1424300">
    <ele>191</ele>
   </trkpt>
   <trkpt lat="22.3811600" lon="114.1425100">
    <ele>191</ele>
   </trkpt>
   <trkpt lat="22.3811600" lon="114.1426400">
    <ele>191</ele>
   </trkpt>
   <trkpt lat="22.3810500" lon="114.1428600">
    <ele>193</ele>
   </trkpt>
   <trkpt lat="22.3808900" lon="114.1430500">
    <ele>193</ele>
   </trkpt>
   <trkpt lat="22.3808500" lon="114.1431600">
    <ele>194</ele>
   </trkpt>
   <trkpt lat="22.3808300" lon="114.1434000">
    <ele>194</ele>
   </trkpt>
   <trkpt lat="22.3807800" lon="114.1434700">
    <ele>195</ele>
   </trkpt>
   <trkpt lat="22.3807000" lon="114.1435200">
    <ele>195</ele>
   </trkpt>
   <trkpt lat="22.3805600" lon="114.1435600">
    <ele>195</ele>
   </trkpt>
   <trkpt lat="22.3804900" lon="114.1435300">
    <ele>195</ele>
   </trkpt>
   <trkpt lat="22.3803400" lon="114.1434200">
    <ele>195</ele>
   </trkpt>
   <trkpt lat="22.3802500" lon="114.1433900">
    <ele>195</ele>
   </trkpt>
   <trkpt lat="22.3794200" lon="114.1436000">
    <ele>195</ele>
   </trkpt>
   <trkpt lat="22.3792600" lon="114.1435500">
    <ele>195</ele>
   </trkpt>
   <trkpt lat="22.3790300" lon="114.1434000">
    <ele>196</ele>
   </trkpt>
   <trkpt lat="22.3787600" lon="114.1434100">
    <ele>197</ele>
   </trkpt>
   <trkpt lat="22.3784800" lon="114.1434600">
    <ele>197</ele>
   </trkpt>
   <trkpt lat="22.3783100" lon="114.1434600">
    <ele>198</ele>
   </trkpt>
   <trkpt lat="22.3782500" lon="114.1434900">
    <ele>198</ele>
   </trkpt>
   <trkpt lat="22.3781800" lon="114.1436100">
    <ele>199</ele>
   </trkpt>
   <trkpt lat="22.3780700" lon="114.1442800">
    <ele>199</ele>
   </trkpt>
   <trkpt lat="22.3779300" lon="114.1443300">
    <ele>198</ele>
   </trkpt>
   <trkpt lat="22.3778500" lon="114.1444000">
    <ele>198</ele>
   </trkpt>
   <trkpt lat="22.3779300" lon="114.1443200">
    <ele>198</ele>
   </trkpt>
   <trkpt lat="22.3780700" lon="114.1442800">
    <ele>199</ele>
   </trkpt>
   <trkpt lat="22.3780800" lon="114.1443800">
    <ele>199</ele>
   </trkpt>
   <trkpt lat="22.3781400" lon="114.1444700">
    <ele>199</ele>
   </trkpt>
   <trkpt lat="22.3782100" lon="114.1445200">
    <ele>199</ele>
   </trkpt>
   <trkpt lat="22.3784400" lon="114.1446100">
    <ele>199</ele>
   </trkpt>
   <trkpt lat="22.3784900" lon="114.1446600">
    <ele>198</ele>
   </trkpt>
   <trkpt lat="22.3786200" lon="114.1451800">
    <ele>198</ele>
   </trkpt>
   <trkpt lat="22.3786300" lon="114.1453100">
    <ele>198</ele>
   </trkpt>
   <trkpt lat="22.3785900" lon="114.1454300">
    <ele>198</ele>
   </trkpt>
   <trkpt lat="22.3782900" lon="114.1459400">
    <ele>197</ele>
   </trkpt>
   <trkpt lat="22.3779200" lon="114.1461600">
    <ele>196</ele>
   </trkpt>
   <trkpt lat="22.3779100" lon="114.1462200">
    <ele>196</ele>
   </trkpt>
   <trkpt lat="22.3779200" lon="114.1462900">
    <ele>196</ele>
   </trkpt>
   <trkpt lat="22.3781400" lon="114.1466200">
    <ele>196</ele>
   </trkpt>
   <trkpt lat="22.3782600" lon="114.1467600">
    <ele>196</ele>
   </trkpt>
   <trkpt lat="22.3785500" lon="114.1470000">
    <ele>195</ele>
   </trkpt>
   <trkpt lat="22.3787200" lon="114.1472200">
    <ele>195</ele>
   </trkpt>
   <trkpt lat="22.3787500" lon="114.1472900">
    <ele>195</ele>
   </trkpt>
   <trkpt lat="22.3787800" lon="114.1474800">
    <ele>195</ele>
   </trkpt>
   <trkpt lat="22.3792733" lon="114.1480066">
    <ele>195</ele>
   </trkpt>
   <trkpt lat="22.3797666" lon="114.1485333">
    <ele>194</ele>
   </trkpt>
   <trkpt lat="22.3802600" lon="114.1490600">
    <ele>194</ele>
   </trkpt>
   <trkpt lat="22.3802300" lon="114.1491100">
    <ele>194</ele>
   </trkpt>
   <trkpt lat="22.3803100" lon="114.1491900">
    <ele>197</ele>
   </trkpt>
   <trkpt lat="22.3802800" lon="114.1492200">
    <ele>201</ele>
   </trkpt>
   <trkpt lat="22.3802800" lon="114.1492500">
    <ele>201</ele>
   </trkpt>
   <trkpt lat="22.3803600" lon="114.1492300">
    <ele>202</ele>
   </trkpt>
   <trkpt lat="22.3803500" lon="114.1493400">
    <ele>208</ele>
   </trkpt>
   <trkpt lat="22.3803700" lon="114.1493700">
    <ele>208</ele>
   </trkpt>
   <trkpt lat="22.3803400" lon="114.1493900">
    <ele>208</ele>
   </trkpt>
   <trkpt lat="22.3803100" lon="114.1494600">
    <ele>211</ele>
   </trkpt>
   <trkpt lat="22.3803400" lon="114.1496100">
    <ele>215</ele>
   </trkpt>
   <trkpt lat="22.3804500" lon="114.1498200">
    <ele>221</ele>
   </trkpt>
   <trkpt lat="22.3804500" lon="114.1500800">
    <ele>224</ele>
   </trkpt>
   <trkpt lat="22.3805100" lon="114.1501700">
    <ele>228</ele>
   </trkpt>
   <trkpt lat="22.3807200" lon="114.1506200">
    <ele>235</ele>
   </trkpt>
   <trkpt lat="22.3808400" lon="114.1507700">
    <ele>239</ele>
   </trkpt>
   <trkpt lat="22.3809600" lon="114.1510700">
    <ele>247</ele>
   </trkpt>
   <trkpt lat="22.3811200" lon="114.1515600">
    <ele>271</ele>
   </trkpt>
   <trkpt lat="22.3812100" lon="114.1516600">
    <ele>276</ele>
   </trkpt>
   <trkpt lat="22.3813800" lon="114.1517000">
    <ele>282</ele>
   </trkpt>
   <trkpt lat="22.3814300" lon="114.1517800">
    <ele>285</ele>
   </trkpt>
   <trkpt lat="22.3814400" lon="114.1518600">
    <ele>287</ele>
   </trkpt>
   <trkpt lat="22.3813200" lon="114.1520300">
    <ele>296</ele>
   </trkpt>
   <trkpt lat="22.3813100" lon="114.1521000">
    <ele>297</ele>
   </trkpt>
   <trkpt lat="22.3813300" lon="114.1521800">
    <ele>300</ele>
   </trkpt>
   <trkpt lat="22.3813900" lon="114.1522500">
    <ele>303</ele>
   </trkpt>
   <trkpt lat="22.3814500" lon="114.1522700">
    <ele>305</ele>
   </trkpt>
   <trkpt lat="22.3815100" lon="114.1523600">
    <ele>309</ele>
   </trkpt>
   <trkpt lat="22.3815200" lon="114.1524100">
    <ele>309</ele>
   </trkpt>
   <trkpt lat="22.3814900" lon="114.1525600">
    <ele>311</ele>
   </trkpt>
   <trkpt lat="22.3815300" lon="114.1527400">
    <ele>315</ele>
   </trkpt>
   <trkpt lat="22.3816600" lon="114.1529800">
    <ele>320</ele>
   </trkpt>
   <trkpt lat="22.3817300" lon="114.1530400">
    <ele>328</ele>
   </trkpt>
   <trkpt lat="22.3819000" lon="114.1533200">
    <ele>336</ele>
   </trkpt>
   <trkpt lat="22.3819300" lon="114.1534000">
    <ele>338</ele>
   </trkpt>
   <trkpt lat="22.3819300" lon="114.1536600">
    <ele>340</ele>
   </trkpt>
   <trkpt lat="22.3818900" lon="114.1538000">
    <ele>340</ele>
   </trkpt>
   <trkpt lat="22.3816400" lon="114.1541100">
    <ele>340</ele>
   </trkpt>
   <trkpt lat="22.3816000" lon="114.1542100">
    <ele>336</ele>
   </trkpt>
   <trkpt lat="22.3816100" lon="114.1542700">
    <ele>333</ele>
   </trkpt>
   <trkpt lat="22.3816500" lon="114.1543500">
    <ele>333</ele>
   </trkpt>
   <trkpt lat="22.3816800" lon="114.1544800">
    <ele>327</ele>
   </trkpt>
   <trkpt lat="22.3817400" lon="114.1546000">
    <ele>324</ele>
   </trkpt>
   <trkpt lat="22.3819900" lon="114.1549300">
    <ele>320</ele>
   </trkpt>
   <trkpt lat="22.3820800" lon="114.1551800">
    <ele>326</ele>
   </trkpt>
   <trkpt lat="22.3820700" lon="114.1552400">
    <ele>327</ele>
   </trkpt>
   <trkpt lat="22.3821200" lon="114.1553100">
    <ele>331</ele>
   </trkpt>
   <trkpt lat="22.3822400" lon="114.1553800">
    <ele>337</ele>
   </trkpt>
   <trkpt lat="22.3822500" lon="114.1554000">
    <ele>339</ele>
   </trkpt>
   <trkpt lat="22.3823700" lon="114.1554200">
    <ele>343</ele>
   </trkpt>
   <trkpt lat="22.3825400" lon="114.1555300">
    <ele>351</ele>
   </trkpt>
   <trkpt lat="22.3825700" lon="114.1555700">
    <ele>352</ele>
   </trkpt>
   <trkpt lat="22.3826100" lon="114.1555600">
    <ele>354</ele>
   </trkpt>
   <trkpt lat="22.3826900" lon="114.1556100">
    <ele>356</ele>
   </trkpt>
   <trkpt lat="22.3827400" lon="114.1556100">
    <ele>356</ele>
   </trkpt>
   <trkpt lat="22.3828400" lon="114.1556700">
    <ele>364</ele>
   </trkpt>
   <trkpt lat="22.3828000" lon="114.1557900">
    <ele>364</ele>
   </trkpt>
   <trkpt lat="22.3828300" lon="114.1558800">
    <ele>366</ele>
   </trkpt>
   <trkpt lat="22.3828400" lon="114.1560900">
    <ele>369</ele>
   </trkpt>
   <trkpt lat="22.3828900" lon="114.1562600">
    <ele>371</ele>
   </trkpt>
   <trkpt lat="22.3828900" lon="114.1564900">
    <ele>373</ele>
   </trkpt>
   <trkpt lat="22.3829300" lon="114.1567500">
    <ele>377</ele>
   </trkpt>
   <trkpt lat="22.3829700" lon="114.1568300">
    <ele>377</ele>
   </trkpt>
   <trkpt lat="22.3830200" lon="114.1568700">
    <ele>378</ele>
   </trkpt>
   <trkpt lat="22.3831100" lon="114.1569100">
    <ele>379</ele>
   </trkpt>
   <trkpt lat="22.3831500" lon="114.1569800">
    <ele>380</ele>
   </trkpt>
   <trkpt lat="22.3832200" lon="114.1570200">
    <ele>383</ele>
   </trkpt>
   <trkpt lat="22.3832900" lon="114.1570200">
    <ele>385</ele>
   </trkpt>
   <trkpt lat="22.3834500" lon="114.1570700">
    <ele>391</ele>
   </trkpt>
   <trkpt lat="22.3834700" lon="114.1571500">
    <ele>393</ele>
   </trkpt>
   <trkpt lat="22.3835100" lon="114.1572000">
    <ele>398</ele>
   </trkpt>
   <trkpt lat="22.3835500" lon="114.1572100">
    <ele>398</ele>
   </trkpt>
   <trkpt lat="22.3836400" lon="114.1572800">
    <ele>400</ele>
   </trkpt>
   <trkpt lat="22.3836700" lon="114.1572800">
    <ele>405</ele>
   </trkpt>
   <trkpt lat="22.3837300" lon="114.1573500">
    <ele>407</ele>
   </trkpt>
   <trkpt lat="22.3838100" lon="114.1573900">
    <ele>410</ele>
   </trkpt>
   <trkpt lat="22.3838600" lon="114.1573800">
    <ele>413</ele>
   </trkpt>
   <trkpt lat="22.3841100" lon="114.1571400">
    <ele>424</ele>
   </trkpt>
   <trkpt lat="22.3842700" lon="114.1570600">
    <ele>428</ele>
   </trkpt>
   <trkpt lat="22.3846100" lon="114.1570200">
    <ele>435</ele>
   </trkpt>
   <trkpt lat="22.3846900" lon="114.1570500">
    <ele>437</ele>
   </trkpt>
   <trkpt lat="22.3848800" lon="114.1572500">
    <ele>439</ele>
   </trkpt>
   <trkpt lat="22.3849400" lon="114.1572800">
    <ele>440</ele>
   </trkpt>
   <trkpt lat="22.3850100" lon="114.1573500">
    <ele>441</ele>
   </trkpt>
   <trkpt lat="22.3850900" lon="114.1574900">
    <ele>445</ele>
   </trkpt>
   <trkpt lat="22.3851000" lon="114.1576600">
    <ele>446</ele>
   </trkpt>
   <trkpt lat="22.3851000" lon="114.1578200">
    <ele>445</ele>
   </trkpt>
   <trkpt lat="22.3853000" lon="114.1580800">
    <ele>436</ele>
   </trkpt>
   <trkpt lat="22.3854100" lon="114.1584100">
    <ele>430</ele>
   </trkpt>
   <trkpt lat="22.3854900" lon="114.1585400">
    <ele>430</ele>
   </trkpt>
   <trkpt lat="22.3856000" lon="114.1585800">
    <ele>433</ele>
   </trkpt>
   <trkpt lat="22.3857100" lon="114.1587800">
    <ele>441</ele>
   </trkpt>
   <trkpt lat="22.3858000" lon="114.1588400">
    <ele>443</ele>
   </trkpt>
   <trkpt lat="22.3859000" lon="114.1590300">
    <ele>448</ele>
   </trkpt>
   <trkpt lat="22.3861000" lon="114.1592500">
    <ele>454</ele>
   </trkpt>
   <trkpt lat="22.3861600" lon="114.1593500">
    <ele>456</ele>
   </trkpt>
   <trkpt lat="22.3862100" lon="114.1595000">
    <ele>462</ele>
   </trkpt>
   <trkpt lat="22.3862600" lon="114.1595400">
    <ele>462</ele>
   </trkpt>
   <trkpt lat="22.3864300" lon="114.1598800">
    <ele>477</ele>
   </trkpt>
   <trkpt lat="22.3864900" lon="114.1600500">
    <ele>482</ele>
   </trkpt>
   <trkpt lat="22.3865400" lon="114.1601300">
    <ele>491</ele>
   </trkpt>
   <trkpt lat="22.3865700" lon="114.1601300">
    <ele>493</ele>
   </trkpt>
   <trkpt lat="22.3866000" lon="114.1602400">
    <ele>497</ele>
   </trkpt>
   <trkpt lat="22.3866400" lon="114.1602400">
    <ele>497</ele>
   </trkpt>
   <trkpt lat="22.3867100" lon="114.1604100">
    <ele>508</ele>
   </trkpt>
   <trkpt lat="22.3867700" lon="114.1604700">
    <ele>512</ele>
   </trkpt>
   <trkpt lat="22.3868000" lon="114.1605900">
    <ele>517</ele>
   </trkpt>
   <trkpt lat="22.3869800" lon="114.1606800">
    <ele>520</ele>
   </trkpt>
   <trkpt lat="22.3870300" lon="114.1606900">
    <ele>520</ele>
   </trkpt>
   <trkpt lat="22.3870400" lon="114.1607100">
    <ele>520</ele>
   </trkpt>
   <trkpt lat="22.3871400" lon="114.1607100">
    <ele>518</ele>
   </trkpt>
   <trkpt lat="22.3872200" lon="114.1607400">
    <ele>516</ele>
   </trkpt>
   <trkpt lat="22.3873900" lon="114.1608400">
    <ele>508</ele>
   </trkpt>
   <trkpt lat="22.3874400" lon="114.1609600">
    <ele>504</ele>
   </trkpt>
   <trkpt lat="22.3875000" lon="114.1609900">
    <ele>503</ele>
   </trkpt>
   <trkpt lat="22.3875100" lon="114.1610200">
    <ele>503</ele>
   </trkpt>
   <trkpt lat="22.3875600" lon="114.1610300">
    <ele>499</ele>
   </trkpt>
   <trkpt lat="22.3876700" lon="114.1611800">
    <ele>495</ele>
   </trkpt>
   <trkpt lat="22.3878000" lon="114.1612700">
    <ele>495</ele>
   </trkpt>
   <trkpt lat="22.3878700" lon="114.1612600">
    <ele>492</ele>
   </trkpt>
   <trkpt lat="22.3879700" lon="114.1613200">
    <ele>487</ele>
   </trkpt>
   <trkpt lat="22.3879900" lon="114.1613700">
    <ele>487</ele>
   </trkpt>
   <trkpt lat="22.3880300" lon="114.1614000">
    <ele>483</ele>
   </trkpt>
   <trkpt lat="22.3880600" lon="114.1614600">
    <ele>481</ele>
   </trkpt>
   <trkpt lat="22.3881000" lon="114.1614800">
    <ele>479</ele>
   </trkpt>
   <trkpt lat="22.3881100" lon="114.1615100">
    <ele>479</ele>
   </trkpt>
   <trkpt lat="22.3881600" lon="114.1615100">
    <ele>479</ele>
   </trkpt>
   <trkpt lat="22.3881800" lon="114.1615500">
    <ele>469</ele>
   </trkpt>
   <trkpt lat="22.3882400" lon="114.1615500">
    <ele>469</ele>
   </trkpt>
   <trkpt lat="22.3882800" lon="114.1615800">
    <ele>469</ele>
   </trkpt>
   <trkpt lat="22.3885100" lon="114.1616500">
    <ele>451</ele>
   </trkpt>
   <trkpt lat="22.3885600" lon="114.1617200">
    <ele>449</ele>
   </trkpt>
   <trkpt lat="22.3886200" lon="114.1617700">
    <ele>445</ele>
   </trkpt>
   <trkpt lat="22.3888800" lon="114.1618800">
    <ele>433</ele>
   </trkpt>
   <trkpt lat="22.3889100" lon="114.1619100">
    <ele>433</ele>
   </trkpt>
   <trkpt lat="22.3889900" lon="114.1619300">
    <ele>430</ele>
   </trkpt>
   <trkpt lat="22.3892600" lon="114.1620900">
    <ele>416</ele>
   </trkpt>
   <trkpt lat="22.3894300" lon="114.1621600">
    <ele>408</ele>
   </trkpt>
   <trkpt lat="22.3895400" lon="114.1622400">
    <ele>399</ele>
   </trkpt>
   <trkpt lat="22.3895400" lon="114.1622800">
    <ele>399</ele>
   </trkpt>
   <trkpt lat="22.3896000" lon="114.1623500">
    <ele>397</ele>
   </trkpt>
   <trkpt lat="22.3898100" lon="114.1625000">
    <ele>387</ele>
   </trkpt>
   <trkpt lat="22.3899200" lon="114.1625000">
    <ele>385</ele>
   </trkpt>
   <trkpt lat="22.3899800" lon="114.1625400">
    <ele>384</ele>
   </trkpt>
   <trkpt lat="22.3901900" lon="114.1626000">
    <ele>378</ele>
   </trkpt>
   <trkpt lat="22.3905000" lon="114.1627600">
    <ele>375</ele>
   </trkpt>
   <trkpt lat="22.3908900" lon="114.1627500">
    <ele>374</ele>
   </trkpt>
   <trkpt lat="22.3911200" lon="114.1629100">
    <ele>374</ele>
   </trkpt>
   <trkpt lat="22.3912100" lon="114.1630200">
    <ele>375</ele>
   </trkpt>
   <trkpt lat="22.3913400" lon="114.1632700">
    <ele>375</ele>
   </trkpt>
   <trkpt lat="22.3915700" lon="114.1635800">
    <ele>372</ele>
   </trkpt>
   <trkpt lat="22.3916400" lon="114.1637100">
    <ele>369</ele>
   </trkpt>
   <trkpt lat="22.3916700" lon="114.1638300">
    <ele>369</ele>
   </trkpt>
   <trkpt lat="22.3917100" lon="114.1641100">
    <ele>365</ele>
   </trkpt>
   <trkpt lat="22.3917300" lon="114.1642100">
    <ele>365</ele>
   </trkpt>
   <trkpt lat="22.3918200" lon="114.1643400">
    <ele>365</ele>
   </trkpt>
   <trkpt lat="22.3921400" lon="114.1646300">
    <ele>368</ele>
   </trkpt>
   <trkpt lat="22.3921900" lon="114.1647000">
    <ele>369</ele>
   </trkpt>
   <trkpt lat="22.3922400" lon="114.1648200">
    <ele>372</ele>
   </trkpt>
   <trkpt lat="22.3922500" lon="114.1651000">
    <ele>375</ele>
   </trkpt>
   <trkpt lat="22.3922800" lon="114.1651600">
    <ele>380</ele>
   </trkpt>
   <trkpt lat="22.3925000" lon="114.1651900">
    <ele>383</ele>
   </trkpt>
   <trkpt lat="22.3926100" lon="114.1652300">
    <ele>388</ele>
   </trkpt>
   <trkpt lat="22.3927300" lon="114.1653200">
    <ele>389</ele>
   </trkpt>
   <trkpt lat="22.3928400" lon="114.1654600">
    <ele>393</ele>
   </trkpt>
   <trkpt lat="22.3929900" lon="114.1657600">
    <ele>397</ele>
   </trkpt>
   <trkpt lat="22.3931700" lon="114.1662499">
    <ele>399</ele>
   </trkpt>
   <trkpt lat="22.3933500" lon="114.1667400">
    <ele>402</ele>
   </trkpt>
   <trkpt lat="22.3935100" lon="114.1670900">
    <ele>408</ele>
   </trkpt>
   <trkpt lat="22.3936500" lon="114.1673600">
    <ele>412</ele>
   </trkpt>
   <trkpt lat="22.3937400" lon="114.1674900">
    <ele>414</ele>
   </trkpt>
   <trkpt lat="22.3941400" lon="114.1678000">
    <ele>414</ele>
   </trkpt>
   <trkpt lat="22.3944400" lon="114.1679300">
    <ele>415</ele>
   </trkpt>
   <trkpt lat="22.3947700" lon="114.1681200">
    <ele>415</ele>
   </trkpt>
   <trkpt lat="22.3948800" lon="114.1681600">
    <ele>415</ele>
   </trkpt>
   <trkpt lat="22.3950100" lon="114.1681600">
    <ele>413</ele>
   </trkpt>
   <trkpt lat="22.3951400" lon="114.1681000">
    <ele>412</ele>
   </trkpt>
   <trkpt lat="22.3952900" lon="114.1679700">
    <ele>409</ele>
   </trkpt>
   <trkpt lat="22.3955500" lon="114.1676800">
    <ele>401</ele>
   </trkpt>
   <trkpt lat="22.3956200" lon="114.1676400">
    <ele>400</ele>
   </trkpt>
   <trkpt lat="22.3956800" lon="114.1676300">
    <ele>400</ele>
   </trkpt>
   <trkpt lat="22.3959000" lon="114.1676800">
    <ele>398</ele>
   </trkpt>
   <trkpt lat="22.3959800" lon="114.1676800">
    <ele>398</ele>
   </trkpt>
   <trkpt lat="22.3961700" lon="114.1676400">
    <ele>400</ele>
   </trkpt>
   <trkpt lat="22.3964900" lon="114.1676100">
    <ele>406</ele>
   </trkpt>
   <trkpt lat="22.3967100" lon="114.1675700">
    <ele>410</ele>
   </trkpt>
   <trkpt lat="22.3970400" lon="114.1676000">
    <ele>413</ele>
   </trkpt>
   <trkpt lat="22.3971800" lon="114.1676400">
    <ele>414</ele>
   </trkpt>
   <trkpt lat="22.3972900" lon="114.1677100">
    <ele>414</ele>
   </trkpt>
   <trkpt lat="22.3974000" lon="114.1677200">
    <ele>415</ele>
   </trkpt>
   <trkpt lat="22.3974800" lon="114.1676600">
    <ele>416</ele>
   </trkpt>
   <trkpt lat="22.3978000" lon="114.1672400">
    <ele>422</ele>
   </trkpt>
   <trkpt lat="22.3978700" lon="114.1671100">
    <ele>422</ele>
   </trkpt>
   <trkpt lat="22.3979500" lon="114.1668700">
    <ele>423</ele>
   </trkpt>
   <trkpt lat="22.3980900" lon="114.1668300">
    <ele>426</ele>
   </trkpt>
   <trkpt lat="22.3981900" lon="114.1667100">
    <ele>427</ele>
   </trkpt>
   <trkpt lat="22.3982600" lon="114.1665000">
    <ele>434</ele>
   </trkpt>
   <trkpt lat="22.3982400" lon="114.1662600">
    <ele>440</ele>
   </trkpt>
   <trkpt lat="22.3982600" lon="114.1662100">
    <ele>441</ele>
   </trkpt>
   <trkpt lat="22.3983100" lon="114.1662000">
    <ele>441</ele>
   </trkpt>
   <trkpt lat="22.3984000" lon="114.1662500">
    <ele>444</ele>
   </trkpt>
   <trkpt lat="22.3984500" lon="114.1663100">
    <ele>445</ele>
   </trkpt>
   <trkpt lat="22.3985300" lon="114.1664600">
    <ele>448</ele>
   </trkpt>
   <trkpt lat="22.3985600" lon="114.1664400">
    <ele>448</ele>
   </trkpt>
   <trkpt lat="22.3985700" lon="114.1663900">
    <ele>449</ele>
   </trkpt>
   <trkpt lat="22.3985200" lon="114.1661900">
    <ele>452</ele>
   </trkpt>
   <trkpt lat="22.3985300" lon="114.1661100">
    <ele>452</ele>
   </trkpt>
   <trkpt lat="22.3986000" lon="114.1659800">
    <ele>456</ele>
   </trkpt>
   <trkpt lat="22.3986400" lon="114.1659600">
    <ele>456</ele>
   </trkpt>
   <trkpt lat="22.3986900" lon="114.1659600">
    <ele>457</ele>
   </trkpt>
   <trkpt lat="22.3988700" lon="114.1660600">
    <ele>460</ele>
   </trkpt>
   <trkpt lat="22.3990100" lon="114.1660800">
    <ele>462</ele>
   </trkpt>
   <trkpt lat="22.3990700" lon="114.1661200">
    <ele>463</ele>
   </trkpt>
   <trkpt lat="22.3991100" lon="114.1664000">
    <ele>466</ele>
   </trkpt>
   <trkpt lat="22.3992600" lon="114.1666200">
    <ele>469</ele>
   </trkpt>
   <trkpt lat="22.3993800" lon="114.1668700">
    <ele>470</ele>
   </trkpt>
   <trkpt lat="22.3994500" lon="114.1669600">
    <ele>470</ele>
   </trkpt>
   <trkpt lat="22.3996900" lon="114.1670800">
    <ele>471</ele>
   </trkpt>
   <trkpt lat="22.4000300" lon="114.1671200">
    <ele>476</ele>
   </trkpt>
   <trkpt lat="22.4003400" lon="114.1672400">
    <ele>478</ele>
   </trkpt>
   <trkpt lat="22.4004600" lon="114.1673400">
    <ele>478</ele>
   </trkpt>
   <trkpt lat="22.4005600" lon="114.1675300">
    <ele>477</ele>
   </trkpt>
   <trkpt lat="22.4006300" lon="114.1675900">
    <ele>477</ele>
   </trkpt>
   <trkpt lat="22.4007600" lon="114.1676600">
    <ele>478</ele>
   </trkpt>
   <trkpt lat="22.4009300" lon="114.1678300">
    <ele>478</ele>
   </trkpt>
   <trkpt lat="22.4010000" lon="114.1678800">
    <ele>478</ele>
   </trkpt>
   <trkpt lat="22.4010500" lon="114.1678900">
    <ele>478</ele>
   </trkpt>
   <trkpt lat="22.4011000" lon="114.1678800">
    <ele>478</ele>
   </trkpt>
   <trkpt lat="22.4012300" lon="114.1678000">
    <ele>479</ele>
   </trkpt>
   <trkpt lat="22.4016000" lon="114.1674500">
    <ele>482</ele>
   </trkpt>
   <trkpt lat="22.4018900" lon="114.1672800">
    <ele>485</ele>
   </trkpt>
   <trkpt lat="22.4019400" lon="114.1672700">
    <ele>485</ele>
   </trkpt>
   <trkpt lat="22.4019800" lon="114.1672900">
    <ele>485</ele>
   </trkpt>
   <trkpt lat="22.4021100" lon="114.1674900">
    <ele>489</ele>
   </trkpt>
   <trkpt lat="22.4023000" lon="114.1676400">
    <ele>494</ele>
   </trkpt>
   <trkpt lat="22.4023900" lon="114.1676800">
    <ele>494</ele>
   </trkpt>
   <trkpt lat="22.4025500" lon="114.1676900">
    <ele>497</ele>
   </trkpt>
   <trkpt lat="22.4026100" lon="114.1676500">
    <ele>498</ele>
   </trkpt>
   <trkpt lat="22.4026400" lon="114.1675700">
    <ele>501</ele>
   </trkpt>
   <trkpt lat="22.4026300" lon="114.1675300">
    <ele>501</ele>
   </trkpt>
   <trkpt lat="22.4025400" lon="114.1674400">
    <ele>503</ele>
   </trkpt>
   <trkpt lat="22.4025100" lon="114.1673600">
    <ele>504</ele>
   </trkpt>
   <trkpt lat="22.4025100" lon="114.1672500">
    <ele>506</ele>
   </trkpt>
   <trkpt lat="22.4025700" lon="114.1671800">
    <ele>507</ele>
   </trkpt>
   <trkpt lat="22.4026500" lon="114.1671800">
    <ele>508</ele>
   </trkpt>
   <trkpt lat="22.4028700" lon="114.1673000">
    <ele>513</ele>
   </trkpt>
   <trkpt lat="22.4031300" lon="114.1673400">
    <ele>515</ele>
   </trkpt>
   <trkpt lat="22.4036500" lon="114.1671400">
    <ele>520</ele>
   </trkpt>
   <trkpt lat="22.4038900" lon="114.1670900">
    <ele>524</ele>
   </trkpt>
   <trkpt lat="22.4041000" lon="114.1671000">
    <ele>528</ele>
   </trkpt>
   <trkpt lat="22.4043600" lon="114.1671500">
    <ele>532</ele>
   </trkpt>
   <trkpt lat="22.4045300" lon="114.1672200">
    <ele>535</ele>
   </trkpt>
   <trkpt lat="22.4046700" lon="114.1673600">
    <ele>538</ele>
   </trkpt>
   <trkpt lat="22.4049100" lon="114.1676900">
    <ele>542</ele>
   </trkpt>
   <trkpt lat="22.4049700" lon="114.1677200">
    <ele>547</ele>
   </trkpt>
   <trkpt lat="22.4050500" lon="114.1676800">
    <ele>547</ele>
   </trkpt>
   <trkpt lat="22.4055000" lon="114.1672700">
    <ele>553</ele>
   </trkpt>
   <trkpt lat="22.4055700" lon="114.1672400">
    <ele>553</ele>
   </trkpt>
   <trkpt lat="22.4058000" lon="114.1672000">
    <ele>556</ele>
   </trkpt>
   <trkpt lat="22.4062000" lon="114.1666600">
    <ele>566</ele>
   </trkpt>
   <trkpt lat="22.4063000" lon="114.1666400">
    <ele>567</ele>
   </trkpt>
   <trkpt lat="22.4065600" lon="114.1667200">
    <ele>571</ele>
   </trkpt>
   <trkpt lat="22.4066200" lon="114.1667200">
    <ele>572</ele>
   </trkpt>
   <trkpt lat="22.4067300" lon="114.1666800">
    <ele>572</ele>
   </trkpt>
   <trkpt lat="22.4068700" lon="114.1665400">
    <ele>574</ele>
   </trkpt>
   <trkpt lat="22.4069400" lon="114.1665000">
    <ele>575</ele>
   </trkpt>
   <trkpt lat="22.4072100" lon="114.1665200">
    <ele>576</ele>
   </trkpt>
   <trkpt lat="22.4073300" lon="114.1664900">
    <ele>576</ele>
   </trkpt>
   <trkpt lat="22.4074100" lon="114.1664300">
    <ele>576</ele>
   </trkpt>
   <trkpt lat="22.4074700" lon="114.1663000">
    <ele>577</ele>
   </trkpt>
   <trkpt lat="22.4076000" lon="114.1661800">
    <ele>577</ele>
   </trkpt>
   <trkpt lat="22.4076900" lon="114.1660400">
    <ele>576</ele>
   </trkpt>
   <trkpt lat="22.4077500" lon="114.1659800">
    <ele>576</ele>
   </trkpt>
   <trkpt lat="22.4083000" lon="114.1657100">
    <ele>572</ele>
   </trkpt>
   <trkpt lat="22.4085800" lon="114.1654700">
    <ele>573</ele>
   </trkpt>
   <trkpt lat="22.4087300" lon="114.1653700">
    <ele>574</ele>
   </trkpt>
   <trkpt lat="22.4089800" lon="114.1652600">
    <ele>575</ele>
   </trkpt>
   <trkpt lat="22.4095700" lon="114.1652100">
    <ele>585</ele>
   </trkpt>
   <trkpt lat="22.4096600" lon="114.1652300">
    <ele>588</ele>
   </trkpt>
   <trkpt lat="22.4097200" lon="114.1652700">
    <ele>588</ele>
   </trkpt>
   <trkpt lat="22.4100300" lon="114.1656300">
    <ele>599</ele>
   </trkpt>
   <trkpt lat="22.4101600" lon="114.1656700">
    <ele>600</ele>
   </trkpt>
   <trkpt lat="22.4103400" lon="114.1656100">
    <ele>603</ele>
   </trkpt>
   <trkpt lat="22.4107100" lon="114.1656500">
    <ele>606</ele>
   </trkpt>
   <trkpt lat="22.4108800" lon="114.1655600">
    <ele>611</ele>
   </trkpt>
   <trkpt lat="22.4112200" lon="114.1651800">
    <ele>619</ele>
   </trkpt>
   <trkpt lat="22.4113100" lon="114.1651900">
    <ele>620</ele>
   </trkpt>
   <trkpt lat="22.4113200" lon="114.1651900">
    <ele>621</ele>
   </trkpt>
   <trkpt lat="22.4113400" lon="114.1651600">
    <ele>621</ele>
   </trkpt>
   <trkpt lat="22.4113500" lon="114.1649800">
    <ele>617</ele>
   </trkpt>
   <trkpt lat="22.4113800" lon="114.1648200">
    <ele>612</ele>
   </trkpt>
   <trkpt lat="22.4115400" lon="114.1645900">
    <ele>601</ele>
   </trkpt>
   <trkpt lat="22.4115600" lon="114.1643500">
    <ele>593</ele>
   </trkpt>
   <trkpt lat="22.4115400" lon="114.1638700">
    <ele>584</ele>
   </trkpt>
   <trkpt lat="22.4116100" lon="114.1634700">
    <ele>578</ele>
   </trkpt>
   <trkpt lat="22.4118100" lon="114.1628900">
    <ele>560</ele>
   </trkpt>
   <trkpt lat="22.4118000" lon="114.1627400">
    <ele>554</ele>
   </trkpt>
   <trkpt lat="22.4117600" lon="114.1626800">
    <ele>549</ele>
   </trkpt>
   <trkpt lat="22.4117500" lon="114.1626300">
    <ele>549</ele>
   </trkpt>
   <trkpt lat="22.4117800" lon="114.1626100">
    <ele>549</ele>
   </trkpt>
   <trkpt lat="22.4118800" lon="114.1623000">
    <ele>537</ele>
   </trkpt>
   <trkpt lat="22.4118800" lon="114.1621700">
    <ele>533</ele>
   </trkpt>
   <trkpt lat="22.4119900" lon="114.1619100">
    <ele>524</ele>
   </trkpt>
   <trkpt lat="22.4120200" lon="114.1618900">
    <ele>524</ele>
   </trkpt>
   <trkpt lat="22.4120900" lon="114.1617700">
    <ele>515</ele>
   </trkpt>
   <trkpt lat="22.4122000" lon="114.1616500">
    <ele>508</ele>
   </trkpt>
   <trkpt lat="22.4122900" lon="114.1614900">
    <ele>505</ele>
   </trkpt>
   <trkpt lat="22.4123300" lon="114.1613600">
    <ele>499</ele>
   </trkpt>
   <trkpt lat="22.4123700" lon="114.1613000">
    <ele>495</ele>
   </trkpt>
   <trkpt lat="22.4123800" lon="114.1610500">
    <ele>487</ele>
   </trkpt>
   <trkpt lat="22.4124700" lon="114.1608000">
    <ele>474</ele>
   </trkpt>
   <trkpt lat="22.4125100" lon="114.1607300">
    <ele>470</ele>
   </trkpt>
   <trkpt lat="22.4125000" lon="114.1605800">
    <ele>466</ele>
   </trkpt>
   <trkpt lat="22.4125500" lon="114.1605500">
    <ele>461</ele>
   </trkpt>
   <trkpt lat="22.4125900" lon="114.1604200">
    <ele>461</ele>
   </trkpt>
   <trkpt lat="22.4126400" lon="114.1602000">
    <ele>449</ele>
   </trkpt>
   <trkpt lat="22.4126300" lon="114.1601300">
    <ele>447</ele>
   </trkpt>
   <trkpt lat="22.4126500" lon="114.1600600">
    <ele>445</ele>
   </trkpt>
   <trkpt lat="22.4126500" lon="114.1599600">
    <ele>440</ele>
   </trkpt>
   <trkpt lat="22.4125900" lon="114.1599600">
    <ele>440</ele>
   </trkpt>
   <trkpt lat="22.4122800" lon="114.1600700">
    <ele>437</ele>
   </trkpt>
   <trkpt lat="22.4122500" lon="114.1599700">
    <ele>432</ele>
   </trkpt>
   <trkpt lat="22.4123200" lon="114.1599200">
    <ele>431</ele>
   </trkpt>
   <trkpt lat="22.4124300" lon="114.1597600">
    <ele>428</ele>
   </trkpt>
   <trkpt lat="22.4124900" lon="114.1595500">
    <ele>427</ele>
   </trkpt>
   <trkpt lat="22.4130200" lon="114.1588200">
    <ele>414</ele>
   </trkpt>
   <trkpt lat="22.4130200" lon="114.1587400">
    <ele>412</ele>
   </trkpt>
   <trkpt lat="22.4129600" lon="114.1586600">
    <ele>409</ele>
   </trkpt>
   <trkpt lat="22.4129200" lon="114.1586600">
    <ele>409</ele>
   </trkpt>
   <trkpt lat="22.4124800" lon="114.1588700">
    <ele>402</ele>
   </trkpt>
   <trkpt lat="22.4123600" lon="114.1588700">
    <ele>401</ele>
   </trkpt>
   <trkpt lat="22.4122500" lon="114.1588100">
    <ele>398</ele>
   </trkpt>
   <trkpt lat="22.4122100" lon="114.1587600">
    <ele>398</ele>
   </trkpt>
   <trkpt lat="22.4121900" lon="114.1587100">
    <ele>398</ele>
   </trkpt>
   <trkpt lat="22.4121800" lon="114.1584800">
    <ele>396</ele>
   </trkpt>
   <trkpt lat="22.4121300" lon="114.1584000">
    <ele>394</ele>
   </trkpt>
   <trkpt lat="22.4119700" lon="114.1582700">
    <ele>392</ele>
   </trkpt>
   <trkpt lat="22.4118100" lon="114.1582200">
    <ele>391</ele>
   </trkpt>
   <trkpt lat="22.4122700" lon="114.1575100">
    <ele>406</ele>
   </trkpt>
   <trkpt lat="22.4122500" lon="114.1573100">
    <ele>412</ele>
   </trkpt>
   <trkpt lat="22.4121600" lon="114.1571200">
    <ele>417</ele>
   </trkpt>
   <trkpt lat="22.4122600" lon="114.1569800">
    <ele>423</ele>
   </trkpt>
   <trkpt lat="22.4121700" lon="114.1566400">
    <ele>437</ele>
   </trkpt>
   <trkpt lat="22.4123250" lon="114.1561650">
    <ele>449</ele>
   </trkpt>
   <trkpt lat="22.4124800" lon="114.1556900">
    <ele>466</ele>
   </trkpt>
   <trkpt lat="22.4127300" lon="114.1555400">
    <ele>473</ele>
   </trkpt>
   <trkpt lat="22.4129200" lon="114.1553200">
    <ele>482</ele>
   </trkpt>
   <trkpt lat="22.4129400" lon="114.1549900">
    <ele>495</ele>
   </trkpt>
   <trkpt lat="22.4129900" lon="114.1550100">
    <ele>495</ele>
   </trkpt>
   <trkpt lat="22.4130400" lon="114.1549200">
    <ele>501</ele>
   </trkpt>
   <trkpt lat="22.4129500" lon="114.1543600">
    <ele>515</ele>
   </trkpt>
   <trkpt lat="22.4129400" lon="114.1539300">
    <ele>524</ele>
   </trkpt>
   <trkpt lat="22.4129000" lon="114.1536900">
    <ele>529</ele>
   </trkpt>
   <trkpt lat="22.4129400" lon="114.1535200">
    <ele>532</ele>
   </trkpt>
   <trkpt lat="22.4128700" lon="114.1531700">
    <ele>541</ele>
   </trkpt>
   <trkpt lat="22.4130700" lon="114.1528200">
    <ele>556</ele>
   </trkpt>
   <trkpt lat="22.4131600" lon="114.1522800">
    <ele>568</ele>
   </trkpt>
   <trkpt lat="22.4133500" lon="114.1522100">
    <ele>574</ele>
   </trkpt>
   <trkpt lat="22.4138200" lon="114.1517500">
    <ele>588</ele>
   </trkpt>
   <trkpt lat="22.4142200" lon="114.1510200">
    <ele>606</ele>
   </trkpt>
   <trkpt lat="22.4143700" lon="114.1510000">
    <ele>609</ele>
   </trkpt>
   <trkpt lat="22.4145300" lon="114.1508800">
    <ele>612</ele>
   </trkpt>
   <trkpt lat="22.4145500" lon="114.1507400">
    <ele>615</ele>
   </trkpt>
   <trkpt lat="22.4147800" lon="114.1502800">
    <ele>628</ele>
   </trkpt>
   <trkpt lat="22.4149800" lon="114.1501800">
    <ele>630</ele>
   </trkpt>
   <trkpt lat="22.4151000" lon="114.1498300">
    <ele>638</ele>
   </trkpt>
   <trkpt lat="22.4154100" lon="114.1493500">
    <ele>643</ele>
   </trkpt>
   <trkpt lat="22.4156800" lon="114.1486300">
    <ele>652</ele>
   </trkpt>
   <trkpt lat="22.4160200" lon="114.1483700">
    <ele>652</ele>
   </trkpt>
   <trkpt lat="22.4162900" lon="114.1482600">
    <ele>649</ele>
   </trkpt>
   <trkpt lat="22.4166200" lon="114.1479400">
    <ele>648</ele>
   </trkpt>
   <trkpt lat="22.4166600" lon="114.1478300">
    <ele>649</ele>
   </trkpt>
   <trkpt lat="22.4165200" lon="114.1475400">
    <ele>652</ele>
   </trkpt>
   <trkpt lat="22.4166800" lon="114.1472600">
    <ele>653</ele>
   </trkpt>
   <trkpt lat="22.4168500" lon="114.1467400">
    <ele>655</ele>
   </trkpt>
   <trkpt lat="22.4168500" lon="114.1467000">
    <ele>655</ele>
   </trkpt>
   <trkpt lat="22.4167900" lon="114.1464000">
    <ele>654</ele>
   </trkpt>
   <trkpt lat="22.4168500" lon="114.1461200">
    <ele>654</ele>
   </trkpt>
   <trkpt lat="22.4166100" lon="114.1457800">
    <ele>660</ele>
   </trkpt>
   <trkpt lat="22.4165800" lon="114.1454400">
    <ele>662</ele>
   </trkpt>
   <trkpt lat="22.4163750" lon="114.1448649">
    <ele>668</ele>
   </trkpt>
   <trkpt lat="22.4161700" lon="114.1442900">
    <ele>679</ele>
   </trkpt>
   <trkpt lat="22.4160200" lon="114.1441800">
    <ele>680</ele>
   </trkpt>
   <trkpt lat="22.4157600" lon="114.1434800">
    <ele>687</ele>
   </trkpt>
   <trkpt lat="22.4158300" lon="114.1432800">
    <ele>691</ele>
   </trkpt>
   <trkpt lat="22.4158100" lon="114.1430400">
    <ele>695</ele>
   </trkpt>
   <trkpt lat="22.4159100" lon="114.1428800">
    <ele>697</ele>
   </trkpt>
   <trkpt lat="22.4159300" lon="114.1424900">
    <ele>699</ele>
   </trkpt>
   <trkpt lat="22.4160400" lon="114.1422000">
    <ele>701</ele>
   </trkpt>
   <trkpt lat="22.4160200" lon="114.1420500">
    <ele>701</ele>
   </trkpt>
   <trkpt lat="22.4161700" lon="114.1418600">
    <ele>702</ele>
   </trkpt>
   <trkpt lat="22.4163400" lon="114.1414700">
    <ele>703</ele>
   </trkpt>
   <trkpt lat="22.4165900" lon="114.1411600">
    <ele>707</ele>
   </trkpt>
   <trkpt lat="22.4166900" lon="114.1411300">
    <ele>709</ele>
   </trkpt>
   <trkpt lat="22.4168700" lon="114.1409400">
    <ele>715</ele>
   </trkpt>
   <trkpt lat="22.4170700" lon="114.1404600">
    <ele>720</ele>
   </trkpt>
   <trkpt lat="22.4170600" lon="114.1401800">
    <ele>727</ele>
   </trkpt>
   <trkpt lat="22.4171200" lon="114.1399300">
    <ele>733</ele>
   </trkpt>
   <trkpt lat="22.4174000" lon="114.1395400">
    <ele>736</ele>
   </trkpt>
   <trkpt lat="22.4174000" lon="114.1394300">
    <ele>736</ele>
   </trkpt>
   <trkpt lat="22.4172200" lon="114.1390000">
    <ele>745</ele>
   </trkpt>
   <trkpt lat="22.4172200" lon="114.1386400">
    <ele>755</ele>
   </trkpt>
   <trkpt lat="22.4172700" lon="114.1384000">
    <ele>762</ele>
   </trkpt>
   <trkpt lat="22.4174400" lon="114.1383500">
    <ele>766</ele>
   </trkpt>
   <trkpt lat="22.4175200" lon="114.1379500">
    <ele>770</ele>
   </trkpt>
   <trkpt lat="22.4176100" lon="114.1377100">
    <ele>769</ele>
   </trkpt>
   <trkpt lat="22.4176000" lon="114.1375800">
    <ele>768</ele>
   </trkpt>
   <trkpt lat="22.4175400" lon="114.1374900">
    <ele>767</ele>
   </trkpt>
   <trkpt lat="22.4174600" lon="114.1372200">
    <ele>766</ele>
   </trkpt>
   <trkpt lat="22.4172700" lon="114.1370900">
    <ele>766</ele>
   </trkpt>
   <trkpt lat="22.4171900" lon="114.1370100">
    <ele>766</ele>
   </trkpt>
   <trkpt lat="22.4171100" lon="114.1368400">
    <ele>768</ele>
   </trkpt>
   <trkpt lat="22.4171100" lon="114.1366900">
    <ele>768</ele>
   </trkpt>
   <trkpt lat="22.4172400" lon="114.1364600">
    <ele>766</ele>
   </trkpt>
   <trkpt lat="22.4172000" lon="114.1362900">
    <ele>766</ele>
   </trkpt>
   <trkpt lat="22.4171800" lon="114.1358500">
    <ele>766</ele>
   </trkpt>
   <trkpt lat="22.4170800" lon="114.1357000">
    <ele>767</ele>
   </trkpt>
   <trkpt lat="22.4171500" lon="114.1353600">
    <ele>764</ele>
   </trkpt>
   <trkpt lat="22.4171500" lon="114.1352400">
    <ele>763</ele>
   </trkpt>
   <trkpt lat="22.4169500" lon="114.1348900">
    <ele>759</ele>
   </trkpt>
   <trkpt lat="22.4168300" lon="114.1348400">
    <ele>755</ele>
   </trkpt>
   <trkpt lat="22.4167600" lon="114.1345900">
    <ele>743</ele>
   </trkpt>
   <trkpt lat="22.4167600" lon="114.1344200">
    <ele>740</ele>
   </trkpt>
   <trkpt lat="22.4166400" lon="114.1341300">
    <ele>734</ele>
   </trkpt>
   <trkpt lat="22.4165600" lon="114.1338800">
    <ele>731</ele>
   </trkpt>
   <trkpt lat="22.4168300" lon="114.1331200">
    <ele>725</ele>
   </trkpt>
   <trkpt lat="22.4168300" lon="114.1330600">
    <ele>725</ele>
   </trkpt>
   <trkpt lat="22.4167700" lon="114.1329700">
    <ele>724</ele>
   </trkpt>
   <trkpt lat="22.4167500" lon="114.1326100">
    <ele>720</ele>
   </trkpt>
   <trkpt lat="22.4167700" lon="114.1323900">
    <ele>720</ele>
   </trkpt>
   <trkpt lat="22.4167700" lon="114.1323000">
    <ele>720</ele>
   </trkpt>
   <trkpt lat="22.4166900" lon="114.1320600">
    <ele>722</ele>
   </trkpt>
   <trkpt lat="22.4167900" lon="114.1317000">
    <ele>720</ele>
   </trkpt>
   <trkpt lat="22.4167900" lon="114.1314700">
    <ele>721</ele>
   </trkpt>
   <trkpt lat="22.4167600" lon="114.1313500">
    <ele>722</ele>
   </trkpt>
   <trkpt lat="22.4167200" lon="114.1312700">
    <ele>723</ele>
   </trkpt>
   <trkpt lat="22.4165200" lon="114.1310400">
    <ele>727</ele>
   </trkpt>
   <trkpt lat="22.4164700" lon="114.1308400">
    <ele>729</ele>
   </trkpt>
   <trkpt lat="22.4164800" lon="114.1306500">
    <ele>730</ele>
   </trkpt>
   <trkpt lat="22.4165300" lon="114.1304500">
    <ele>730</ele>
   </trkpt>
   <trkpt lat="22.4167200" lon="114.1301100">
    <ele>729</ele>
   </trkpt>
   <trkpt lat="22.4167500" lon="114.1300100">
    <ele>729</ele>
   </trkpt>
   <trkpt lat="22.4167500" lon="114.1298900">
    <ele>729</ele>
   </trkpt>
   <trkpt lat="22.4166800" lon="114.1296700">
    <ele>730</ele>
   </trkpt>
   <trkpt lat="22.4166800" lon="114.1294600">
    <ele>731</ele>
   </trkpt>
   <trkpt lat="22.4167100" lon="114.1292400">
    <ele>733</ele>
   </trkpt>
   <trkpt lat="22.4168000" lon="114.1289500">
    <ele>735</ele>
   </trkpt>
   <trkpt lat="22.4168700" lon="114.1285200">
    <ele>737</ele>
   </trkpt>
   <trkpt lat="22.4168800" lon="114.1284000">
    <ele>739</ele>
   </trkpt>
   <trkpt lat="22.4168700" lon="114.1282200">
    <ele>742</ele>
   </trkpt>
   <trkpt lat="22.4167800" lon="114.1278700">
    <ele>753</ele>
   </trkpt>
   <trkpt lat="22.4167100" lon="114.1278300">
    <ele>753</ele>
   </trkpt>
   <trkpt lat="22.4164600" lon="114.1278900">
    <ele>760</ele>
   </trkpt>
   <trkpt lat="22.4164200" lon="114.1278800">
    <ele>762</ele>
   </trkpt>
   <trkpt lat="22.4164000" lon="114.1278500">
    <ele>762</ele>
   </trkpt>
   <trkpt lat="22.4164000" lon="114.1277200">
    <ele>764</ele>
   </trkpt>
   <trkpt lat="22.4164500" lon="114.1273800">
    <ele>768</ele>
   </trkpt>
   <trkpt lat="22.4163800" lon="114.1267000">
    <ele>775</ele>
   </trkpt>
   <trkpt lat="22.4162400" lon="114.1264400">
    <ele>783</ele>
   </trkpt>
   <trkpt lat="22.4162200" lon="114.1263700">
    <ele>784</ele>
   </trkpt>
   <trkpt lat="22.4162200" lon="114.1261800">
    <ele>790</ele>
   </trkpt>
   <trkpt lat="22.4161900" lon="114.1260400">
    <ele>795</ele>
   </trkpt>
   <trkpt lat="22.4162100" lon="114.1258800">
    <ele>798</ele>
   </trkpt>
   <trkpt lat="22.4162000" lon="114.1257900">
    <ele>800</ele>
   </trkpt>
   <trkpt lat="22.4161900" lon="114.1257700">
    <ele>801</ele>
   </trkpt>
   <trkpt lat="22.4161400" lon="114.1257200">
    <ele>801</ele>
   </trkpt>
   <trkpt lat="22.4159300" lon="114.1255700">
    <ele>808</ele>
   </trkpt>
   <trkpt lat="22.4155200" lon="114.1251300">
    <ele>819</ele>
   </trkpt>
   <trkpt lat="22.4154300" lon="114.1250700">
    <ele>821</ele>
   </trkpt>
   <trkpt lat="22.4153600" lon="114.1250500">
    <ele>821</ele>
   </trkpt>
   <trkpt lat="22.4150000" lon="114.1250200">
    <ele>833</ele>
   </trkpt>
   <trkpt lat="22.4149400" lon="114.1250000">
    <ele>835</ele>
   </trkpt>
   <trkpt lat="22.4149000" lon="114.1249500">
    <ele>836</ele>
   </trkpt>
   <trkpt lat="22.4148800" lon="114.1248900">
    <ele>837</ele>
   </trkpt>
   <trkpt lat="22.4148700" lon="114.1246700">
    <ele>838</ele>
   </trkpt>
   <trkpt lat="22.4148100" lon="114.1246600">
    <ele>838</ele>
   </trkpt>
   <trkpt lat="22.4143200" lon="114.1244000">
    <ele>846</ele>
   </trkpt>
   <trkpt lat="22.4142700" lon="114.1243400">
    <ele>846</ele>
   </trkpt>
   <trkpt lat="22.4141300" lon="114.1240300">
    <ele>851</ele>
   </trkpt>
   <trkpt lat="22.4140900" lon="114.1238800">
    <ele>851</ele>
   </trkpt>
   <trkpt lat="22.4140800" lon="114.1235700">
    <ele>856</ele>
   </trkpt>
   <trkpt lat="22.4140300" lon="114.1235000">
    <ele>857</ele>
   </trkpt>
   <trkpt lat="22.4139500" lon="114.1235100">
    <ele>858</ele>
   </trkpt>
   <trkpt lat="22.4139100" lon="114.1235600">
    <ele>859</ele>
   </trkpt>
   <trkpt lat="22.4137400" lon="114.1244300">
    <ele>871</ele>
   </trkpt>
   <trkpt lat="22.4136600" lon="114.1244300">
    <ele>871</ele>
   </trkpt>
   <trkpt lat="22.4136000" lon="114.1243500">
    <ele>873</ele>
   </trkpt>
   <trkpt lat="22.4134800" lon="114.1238100">
    <ele>879</ele>
   </trkpt>
   <trkpt lat="22.4132100" lon="114.1237700">
    <ele>881</ele>
   </trkpt>
   <trkpt lat="22.4131300" lon="114.1237400">
    <ele>886</ele>
   </trkpt>
   <trkpt lat="22.4129400" lon="114.1235900">
    <ele>890</ele>
   </trkpt>
   <trkpt lat="22.4128900" lon="114.1235900">
    <ele>890</ele>
   </trkpt>
   <trkpt lat="22.4128500" lon="114.1236400">
    <ele>890</ele>
   </trkpt>
   <trkpt lat="22.4128500" lon="114.1237000">
    <ele>890</ele>
   </trkpt>
   <trkpt lat="22.4128800" lon="114.1237800">
    <ele>892</ele>
   </trkpt>
   <trkpt lat="22.4130300" lon="114.1239900">
    <ele>895</ele>
   </trkpt>
   <trkpt lat="22.4131100" lon="114.1241300">
    <ele>895</ele>
   </trkpt>
   <trkpt lat="22.4131200" lon="114.1242100">
    <ele>897</ele>
   </trkpt>
   <trkpt lat="22.4130800" lon="114.1242800">
    <ele>897</ele>
   </trkpt>
   <trkpt lat="22.4130100" lon="114.1243400">
    <ele>900</ele>
   </trkpt>
   <trkpt lat="22.4123000" lon="114.1246600">
    <ele>907</ele>
   </trkpt>
   <trkpt lat="22.4119300" lon="114.1249400">
    <ele>913</ele>
   </trkpt>
   <trkpt lat="22.4116500" lon="114.1249600">
    <ele>916</ele>
   </trkpt>
   <trkpt lat="22.4114600" lon="114.1249900">
    <ele>918</ele>
   </trkpt>
   <trkpt lat="22.4114100" lon="114.1250300">
    <ele>918</ele>
   </trkpt>
   <trkpt lat="22.4113600" lon="114.1253100">
    <ele>917</ele>
   </trkpt>
   <trkpt lat="22.4113100" lon="114.1253900">
    <ele>916</ele>
   </trkpt>
   <trkpt lat="22.4112200" lon="114.1254800">
    <ele>915</ele>
   </trkpt>
   <trkpt lat="22.4109700" lon="114.1256800">
    <ele>911</ele>
   </trkpt>
   <trkpt lat="22.4109100" lon="114.1257000">
    <ele>911</ele>
   </trkpt>
   <trkpt lat="22.4108700" lon="114.1257200">
    <ele>911</ele>
   </trkpt>
   <trkpt lat="22.4108000" lon="114.1257300">
    <ele>911</ele>
   </trkpt>
   <trkpt lat="22.4106600" lon="114.1256800">
    <ele>908</ele>
   </trkpt>
   <trkpt lat="22.4106000" lon="114.1256800">
    <ele>908</ele>
   </trkpt>
   <trkpt lat="22.4103900" lon="114.1257100">
    <ele>906</ele>
   </trkpt>
   <trkpt lat="22.4101800" lon="114.1257900">
    <ele>904</ele>
   </trkpt>
   <trkpt lat="22.4100900" lon="114.1258000">
    <ele>903</ele>
   </trkpt>
   <trkpt lat="22.4099400" lon="114.1257800">
    <ele>902</ele>
   </trkpt>
   <trkpt lat="22.4099000" lon="114.1257600">
    <ele>902</ele>
   </trkpt>
   <trkpt lat="22.4098700" lon="114.1257000">
    <ele>900</ele>
   </trkpt>
   <trkpt lat="22.4098600" lon="114.1255700">
    <ele>900</ele>
   </trkpt>
   <trkpt lat="22.4098200" lon="114.1255200">
    <ele>899</ele>
   </trkpt>
   <trkpt lat="22.4097800" lon="114.1255000">
    <ele>899</ele>
   </trkpt>
   <trkpt lat="22.4096700" lon="114.1255000">
    <ele>898</ele>
   </trkpt>
   <trkpt lat="22.4094500" lon="114.1255600">
    <ele>898</ele>
   </trkpt>
   <trkpt lat="22.4093500" lon="114.1255600">
    <ele>894</ele>
   </trkpt>
   <trkpt lat="22.4092700" lon="114.1255300">
    <ele>894</ele>
   </trkpt>
   <trkpt lat="22.4091400" lon="114.1254400">
    <ele>893</ele>
   </trkpt>
   <trkpt lat="22.4088900" lon="114.1253400">
    <ele>891</ele>
   </trkpt>
   <trkpt lat="22.4088100" lon="114.1253300">
    <ele>891</ele>
   </trkpt>
   <trkpt lat="22.4086100" lon="114.1253600">
    <ele>890</ele>
   </trkpt>
   <trkpt lat="22.4083900" lon="114.1253200">
    <ele>888</ele>
   </trkpt>
   <trkpt lat="22.4083500" lon="114.1252400">
    <ele>887</ele>
   </trkpt>
   <trkpt lat="22.4083400" lon="114.1251100">
    <ele>886</ele>
   </trkpt>
   <trkpt lat="22.4083800" lon="114.1248600">
    <ele>883</ele>
   </trkpt>
   <trkpt lat="22.4083300" lon="114.1244500">
    <ele>881</ele>
   </trkpt>
   <trkpt lat="22.4083400" lon="114.1242700">
    <ele>880</ele>
   </trkpt>
   <trkpt lat="22.4083900" lon="114.1241000">
    <ele>879</ele>
   </trkpt>
   <trkpt lat="22.4083700" lon="114.1240400">
    <ele>879</ele>
   </trkpt>
   <trkpt lat="22.4082700" lon="114.1240800">
    <ele>877</ele>
   </trkpt>
   <trkpt lat="22.4082200" lon="114.1242100">
    <ele>876</ele>
   </trkpt>
   <trkpt lat="22.4082200" lon="114.1246400">
    <ele>874</ele>
   </trkpt>
   <trkpt lat="22.4081900" lon="114.1248200">
    <ele>873</ele>
   </trkpt>
   <trkpt lat="22.4081400" lon="114.1249300">
    <ele>871</ele>
   </trkpt>
   <trkpt lat="22.4079900" lon="114.1250800">
    <ele>870</ele>
   </trkpt>
   <trkpt lat="22.4079600" lon="114.1251500">
    <ele>870</ele>
   </trkpt>
   <trkpt lat="22.4079800" lon="114.1253800">
    <ele>870</ele>
   </trkpt>
   <trkpt lat="22.4079600" lon="114.1254300">
    <ele>870</ele>
   </trkpt>
   <trkpt lat="22.4079100" lon="114.1254200">
    <ele>869</ele>
   </trkpt>
   <trkpt lat="22.4078600" lon="114.1253400">
    <ele>869</ele>
   </trkpt>
   <trkpt lat="22.4078700" lon="114.1252300">
    <ele>868</ele>
   </trkpt>
   <trkpt lat="22.4079100" lon="114.1250700">
    <ele>867</ele>
   </trkpt>
   <trkpt lat="22.4079700" lon="114.1249600">
    <ele>866</ele>
   </trkpt>
   <trkpt lat="22.4080400" lon="114.1247700">
    <ele>865</ele>
   </trkpt>
   <trkpt lat="22.4080200" lon="114.1244800">
    <ele>864</ele>
   </trkpt>
   <trkpt lat="22.4079600" lon="114.1242600">
    <ele>862</ele>
   </trkpt>
   <trkpt lat="22.4079400" lon="114.1240800">
    <ele>861</ele>
   </trkpt>
   <trkpt lat="22.4079500" lon="114.1239900">
    <ele>861</ele>
   </trkpt>
   <trkpt lat="22.4079800" lon="114.1239100">
    <ele>860</ele>
   </trkpt>
   <trkpt lat="22.4080600" lon="114.1237900">
    <ele>859</ele>
   </trkpt>
   <trkpt lat="22.4082900" lon="114.1235700">
    <ele>857</ele>
   </trkpt>
   <trkpt lat="22.4083300" lon="114.1235000">
    <ele>857</ele>
   </trkpt>
   <trkpt lat="22.4083100" lon="114.1234400">
    <ele>856</ele>
   </trkpt>
   <trkpt lat="22.4082900" lon="114.1234300">
    <ele>856</ele>
   </trkpt>
   <trkpt lat="22.4082600" lon="114.1234300">
    <ele>855</ele>
   </trkpt>
   <trkpt lat="22.4082100" lon="114.1234500">
    <ele>855</ele>
   </trkpt>
   <trkpt lat="22.4081400" lon="114.1235800">
    <ele>854</ele>
   </trkpt>
   <trkpt lat="22.4080900" lon="114.1236300">
    <ele>854</ele>
   </trkpt>
   <trkpt lat="22.4077600" lon="114.1238800">
    <ele>851</ele>
   </trkpt>
   <trkpt lat="22.4077400" lon="114.1239500">
    <ele>850</ele>
   </trkpt>
   <trkpt lat="22.4077200" lon="114.1241300">
    <ele>849</ele>
   </trkpt>
   <trkpt lat="22.4076700" lon="114.1242700">
    <ele>848</ele>
   </trkpt>
   <trkpt lat="22.4076000" lon="114.1243700">
    <ele>847</ele>
   </trkpt>
   <trkpt lat="22.4074900" lon="114.1244500">
    <ele>846</ele>
   </trkpt>
   <trkpt lat="22.4074700" lon="114.1244900">
    <ele>846</ele>
   </trkpt>
   <trkpt lat="22.4074700" lon="114.1245800">
    <ele>845</ele>
   </trkpt>
   <trkpt lat="22.4075600" lon="114.1247200">
    <ele>844</ele>
   </trkpt>
   <trkpt lat="22.4075600" lon="114.1247800">
    <ele>844</ele>
   </trkpt>
   <trkpt lat="22.4075300" lon="114.1248100">
    <ele>843</ele>
   </trkpt>
   <trkpt lat="22.4074800" lon="114.1248000">
    <ele>843</ele>
   </trkpt>
   <trkpt lat="22.4074400" lon="114.1247600">
    <ele>842</ele>
   </trkpt>
   <trkpt lat="22.4071300" lon="114.1243100">
    <ele>834</ele>
   </trkpt>
   <trkpt lat="22.4071000" lon="114.1242700">
    <ele>834</ele>
   </trkpt>
   <trkpt lat="22.4070700" lon="114.1241900">
    <ele>833</ele>
   </trkpt>
   <trkpt lat="22.4070600" lon="114.1241000">
    <ele>831</ele>
   </trkpt>
   <trkpt lat="22.4070200" lon="114.1239000">
    <ele>829</ele>
   </trkpt>
   <trkpt lat="22.4067800" lon="114.1235600">
    <ele>825</ele>
   </trkpt>
   <trkpt lat="22.4067800" lon="114.1234300">
    <ele>825</ele>
   </trkpt>
   <trkpt lat="22.4068500" lon="114.1232700">
    <ele>821</ele>
   </trkpt>
   <trkpt lat="22.4070000" lon="114.1230900">
    <ele>819</ele>
   </trkpt>
   <trkpt lat="22.4070600" lon="114.1229300">
    <ele>816</ele>
   </trkpt>
   <trkpt lat="22.4070500" lon="114.1228400">
    <ele>815</ele>
   </trkpt>
   <trkpt lat="22.4069100" lon="114.1226600">
    <ele>812</ele>
   </trkpt>
   <trkpt lat="22.4068900" lon="114.1226100">
    <ele>812</ele>
   </trkpt>
   <trkpt lat="22.4069000" lon="114.1225500">
    <ele>809</ele>
   </trkpt>
   <trkpt lat="22.4070800" lon="114.1222500">
    <ele>806</ele>
   </trkpt>
   <trkpt lat="22.4071700" lon="114.1222200">
    <ele>806</ele>
   </trkpt>
   <trkpt lat="22.4074000" lon="114.1222100">
    <ele>803</ele>
   </trkpt>
   <trkpt lat="22.4074300" lon="114.1221800">
    <ele>801</ele>
   </trkpt>
   <trkpt lat="22.4074300" lon="114.1221000">
    <ele>801</ele>
   </trkpt>
   <trkpt lat="22.4073800" lon="114.1220700">
    <ele>801</ele>
   </trkpt>
   <trkpt lat="22.4071800" lon="114.1221000">
    <ele>799</ele>
   </trkpt>
   <trkpt lat="22.4069800" lon="114.1221000">
    <ele>798</ele>
   </trkpt>
   <trkpt lat="22.4066300" lon="114.1221800">
    <ele>795</ele>
   </trkpt>
   <trkpt lat="22.4065400" lon="114.1223700">
    <ele>793</ele>
   </trkpt>
   <trkpt lat="22.4065100" lon="114.1224000">
    <ele>793</ele>
   </trkpt>
   <trkpt lat="22.4064500" lon="114.1224200">
    <ele>793</ele>
   </trkpt>
   <trkpt lat="22.4063500" lon="114.1223800">
    <ele>792</ele>
   </trkpt>
   <trkpt lat="22.4061400" lon="114.1222000">
    <ele>789</ele>
   </trkpt>
   <trkpt lat="22.4060800" lon="114.1221300">
    <ele>787</ele>
   </trkpt>
   <trkpt lat="22.4060500" lon="114.1220500">
    <ele>786</ele>
   </trkpt>
   <trkpt lat="22.4060700" lon="114.1219300">
    <ele>784</ele>
   </trkpt>
   <trkpt lat="22.4061500" lon="114.1218400">
    <ele>782</ele>
   </trkpt>
   <trkpt lat="22.4062600" lon="114.1218000">
    <ele>782</ele>
   </trkpt>
   <trkpt lat="22.4064300" lon="114.1217900">
    <ele>779</ele>
   </trkpt>
   <trkpt lat="22.4064900" lon="114.1217600">
    <ele>779</ele>
   </trkpt>
   <trkpt lat="22.4067700" lon="114.1215300">
    <ele>777</ele>
   </trkpt>
   <trkpt lat="22.4070800" lon="114.1214600">
    <ele>771</ele>
   </trkpt>
   <trkpt lat="22.4073000" lon="114.1213700">
    <ele>769</ele>
   </trkpt>
   <trkpt lat="22.4076200" lon="114.1215300">
    <ele>765</ele>
   </trkpt>
   <trkpt lat="22.4077900" lon="114.1215900">
    <ele>764</ele>
   </trkpt>
   <trkpt lat="22.4078700" lon="114.1215700">
    <ele>763</ele>
   </trkpt>
   <trkpt lat="22.4079900" lon="114.1214300">
    <ele>761</ele>
   </trkpt>
   <trkpt lat="22.4080500" lon="114.1214000">
    <ele>761</ele>
   </trkpt>
   <trkpt lat="22.4081100" lon="114.1214200">
    <ele>759</ele>
   </trkpt>
   <trkpt lat="22.4082300" lon="114.1215300">
    <ele>759</ele>
   </trkpt>
   <trkpt lat="22.4083100" lon="114.1215800">
    <ele>757</ele>
   </trkpt>
   <trkpt lat="22.4084300" lon="114.1215800">
    <ele>756</ele>
   </trkpt>
   <trkpt lat="22.4085000" lon="114.1215500">
    <ele>755</ele>
   </trkpt>
   <trkpt lat="22.4086300" lon="114.1214400">
    <ele>754</ele>
   </trkpt>
   <trkpt lat="22.4087200" lon="114.1212900">
    <ele>752</ele>
   </trkpt>
   <trkpt lat="22.4087300" lon="114.1211500">
    <ele>751</ele>
   </trkpt>
   <trkpt lat="22.4086900" lon="114.1209000">
    <ele>748</ele>
   </trkpt>
   <trkpt lat="22.4086900" lon="114.1208100">
    <ele>748</ele>
   </trkpt>
   <trkpt lat="22.4087800" lon="114.1205100">
    <ele>743</ele>
   </trkpt>
   <trkpt lat="22.4088300" lon="114.1204300">
    <ele>743</ele>
   </trkpt>
   <trkpt lat="22.4092400" lon="114.1201900">
    <ele>738</ele>
   </trkpt>
   <trkpt lat="22.4094400" lon="114.1202200">
    <ele>736</ele>
   </trkpt>
   <trkpt lat="22.4095600" lon="114.1201900">
    <ele>734</ele>
   </trkpt>
   <trkpt lat="22.4098400" lon="114.1199000">
    <ele>731</ele>
   </trkpt>
   <trkpt lat="22.4098900" lon="114.1198800">
    <ele>730</ele>
   </trkpt>
   <trkpt lat="22.4100300" lon="114.1199000">
    <ele>730</ele>
   </trkpt>
   <trkpt lat="22.4101600" lon="114.1198300">
    <ele>729</ele>
   </trkpt>
   <trkpt lat="22.4103600" lon="114.1196200">
    <ele>726</ele>
   </trkpt>
   <trkpt lat="22.4104800" lon="114.1193800">
    <ele>723</ele>
   </trkpt>
   <trkpt lat="22.4105700" lon="114.1192800">
    <ele>722</ele>
   </trkpt>
   <trkpt lat="22.4107100" lon="114.1192100">
    <ele>720</ele>
   </trkpt>
   <trkpt lat="22.4109800" lon="114.1191400">
    <ele>717</ele>
   </trkpt>
   <trkpt lat="22.4115200" lon="114.1188400">
    <ele>712</ele>
   </trkpt>
   <trkpt lat="22.4116000" lon="114.1187800">
    <ele>710</ele>
   </trkpt>
   <trkpt lat="22.4116400" lon="114.1186900">
    <ele>710</ele>
   </trkpt>
   <trkpt lat="22.4116100" lon="114.1185900">
    <ele>707</ele>
   </trkpt>
   <trkpt lat="22.4114900" lon="114.1183700">
    <ele>704</ele>
   </trkpt>
   <trkpt lat="22.4114900" lon="114.1182900">
    <ele>704</ele>
   </trkpt>
   <trkpt lat="22.4117900" lon="114.1176400">
    <ele>695</ele>
   </trkpt>
   <trkpt lat="22.4118100" lon="114.1175600">
    <ele>695</ele>
   </trkpt>
   <trkpt lat="22.4118100" lon="114.1174200">
    <ele>692</ele>
   </trkpt>
   <trkpt lat="22.4118000" lon="114.1174000">
    <ele>692</ele>
   </trkpt>
   <trkpt lat="22.4117600" lon="114.1172400">
    <ele>692</ele>
   </trkpt>
   <trkpt lat="22.4114700" lon="114.1168800">
    <ele>683</ele>
   </trkpt>
   <trkpt lat="22.4112800" lon="114.1168000">
    <ele>678</ele>
   </trkpt>
   <trkpt lat="22.4111500" lon="114.1168000">
    <ele>678</ele>
   </trkpt>
   <trkpt lat="22.4110200" lon="114.1168500">
    <ele>678</ele>
   </trkpt>
   <trkpt lat="22.4106800" lon="114.1170800">
    <ele>670</ele>
   </trkpt>
   <trkpt lat="22.4105700" lon="114.1170700">
    <ele>669</ele>
   </trkpt>
   <trkpt lat="22.4104600" lon="114.1170000">
    <ele>667</ele>
   </trkpt>
   <trkpt lat="22.4103600" lon="114.1166900">
    <ele>662</ele>
   </trkpt>
   <trkpt lat="22.4102000" lon="114.1158300">
    <ele>649</ele>
   </trkpt>
   <trkpt lat="22.4100800" lon="114.1156400">
    <ele>648</ele>
   </trkpt>
   <trkpt lat="22.4100100" lon="114.1155800">
    <ele>647</ele>
   </trkpt>
   <trkpt lat="22.4096700" lon="114.1154200">
    <ele>644</ele>
   </trkpt>
   <trkpt lat="22.4091800" lon="114.1151349">
    <ele>637</ele>
   </trkpt>
   <trkpt lat="22.4086900" lon="114.1148500">
    <ele>627</ele>
   </trkpt>
   <trkpt lat="22.4085700" lon="114.1147600">
    <ele>627</ele>
   </trkpt>
   <trkpt lat="22.4084600" lon="114.1146000">
    <ele>627</ele>
   </trkpt>
   <trkpt lat="22.4084000" lon="114.1144600">
    <ele>618</ele>
   </trkpt>
   <trkpt lat="22.4083850" lon="114.1139699">
    <ele>613</ele>
   </trkpt>
   <trkpt lat="22.4083700" lon="114.1134800">
    <ele>608</ele>
   </trkpt>
   <trkpt lat="22.4082100" lon="114.1129900">
    <ele>600</ele>
   </trkpt>
   <trkpt lat="22.4081100" lon="114.1128200">
    <ele>595</ele>
   </trkpt>
   <trkpt lat="22.4079300" lon="114.1127300">
    <ele>593</ele>
   </trkpt>
   <trkpt lat="22.4076900" lon="114.1126700">
    <ele>591</ele>
   </trkpt>
   <trkpt lat="22.4074200" lon="114.1126400">
    <ele>585</ele>
   </trkpt>
   <trkpt lat="22.4070500" lon="114.1126400">
    <ele>582</ele>
   </trkpt>
   <trkpt lat="22.4069100" lon="114.1125800">
    <ele>580</ele>
   </trkpt>
   <trkpt lat="22.4068300" lon="114.1125100">
    <ele>577</ele>
   </trkpt>
   <trkpt lat="22.4067300" lon="114.1123600">
    <ele>577</ele>
   </trkpt>
   <trkpt lat="22.4064200" lon="114.1117300">
    <ele>567</ele>
   </trkpt>
   <trkpt lat="22.4063900" lon="114.1115700">
    <ele>563</ele>
   </trkpt>
   <trkpt lat="22.4063500" lon="114.1110800">
    <ele>559</ele>
   </trkpt>
   <trkpt lat="22.4063000" lon="114.1109000">
    <ele>551</ele>
   </trkpt>
   <trkpt lat="22.4062300" lon="114.1107700">
    <ele>551</ele>
   </trkpt>
   <trkpt lat="22.4061200" lon="114.1106300">
    <ele>548</ele>
   </trkpt>
   <trkpt lat="22.4058300" lon="114.1104200">
    <ele>545</ele>
   </trkpt>
   <trkpt lat="22.4057500" lon="114.1103300">
    <ele>545</ele>
   </trkpt>
   <trkpt lat="22.4056500" lon="114.1101400">
    <ele>542</ele>
   </trkpt>
   <trkpt lat="22.4055100" lon="114.1096749">
    <ele>537</ele>
   </trkpt>
   <trkpt lat="22.4053700" lon="114.1092100">
    <ele>532</ele>
   </trkpt>
   <trkpt lat="22.4053800" lon="114.1090000">
    <ele>528</ele>
   </trkpt>
   <trkpt lat="22.4054100" lon="114.1088300">
    <ele>528</ele>
   </trkpt>
   <trkpt lat="22.4056100" lon="114.1085100">
    <ele>521</ele>
   </trkpt>
   <trkpt lat="22.4061200" lon="114.1078700">
    <ele>512</ele>
   </trkpt>
   <trkpt lat="22.4061800" lon="114.1076900">
    <ele>509</ele>
   </trkpt>
   <trkpt lat="22.4061000" lon="114.1073900">
    <ele>507</ele>
   </trkpt>
   <trkpt lat="22.4059700" lon="114.1072700">
    <ele>502</ele>
   </trkpt>
   <trkpt lat="22.4055400" lon="114.1070200">
    <ele>498</ele>
   </trkpt>
   <trkpt lat="22.4054800" lon="114.1070000">
    <ele>498</ele>
   </trkpt>
   <trkpt lat="22.4054000" lon="114.1070000">
    <ele>495</ele>
   </trkpt>
   <trkpt lat="22.4052700" lon="114.1070500">
    <ele>493</ele>
   </trkpt>
   <trkpt lat="22.4051000" lon="114.1070700">
    <ele>492</ele>
   </trkpt>
   <trkpt lat="22.4050100" lon="114.1070600">
    <ele>489</ele>
   </trkpt>
   <trkpt lat="22.4049200" lon="114.1069900">
    <ele>489</ele>
   </trkpt>
   <trkpt lat="22.4048300" lon="114.1068700">
    <ele>486</ele>
   </trkpt>
   <trkpt lat="22.4048329" lon="114.1068486">
    <ele>491</ele>
   </trkpt>
   <trkpt lat="22.4048877" lon="114.1064420">
    <ele>490</ele>
   </trkpt>
   <trkpt lat="22.4048899" lon="114.1064403">
    <ele>490</ele>
   </trkpt>
   <trkpt lat="22.4049315" lon="114.1064072">
    <ele>490</ele>
   </trkpt>
   <trkpt lat="22.4049297" lon="114.1064033">
    <ele>486</ele>
   </trkpt>
   <trkpt lat="22.4048947" lon="114.1063299">
    <ele>486</ele>
   </trkpt>
   <trkpt lat="22.4048921" lon="114.1063286">
    <ele>486</ele>
   </trkpt>
   <trkpt lat="22.4048426" lon="114.1063045">
    <ele>486</ele>
   </trkpt>
   <trkpt lat="22.4048378" lon="114.1063017">
    <ele>483</ele>
   </trkpt>
   <trkpt lat="22.4047469" lon="114.1062495">
    <ele>483</ele>
   </trkpt>
   <trkpt lat="22.4047440" lon="114.1062465">
    <ele>483</ele>
   </trkpt>
   <trkpt lat="22.4046890" lon="114.1061899">
    <ele>479</ele>
   </trkpt>
   <trkpt lat="22.4046902" lon="114.1061846">
    <ele>479</ele>
   </trkpt>
   <trkpt lat="22.4047127" lon="114.1060846">
    <ele>479</ele>
   </trkpt>
   <trkpt lat="22.4047153" lon="114.1060820">
    <ele>479</ele>
   </trkpt>
   <trkpt lat="22.4047652" lon="114.1060319">
    <ele>477</ele>
   </trkpt>
  </trkseg>
 </trk>
</gpx>
